{
  "type": "FeatureCollection",
  "features": [
    {
      "type": "Feature",
      "properties": {
        "id": 1,
        "material": "log",
        "snapped": false,
        "pf_uid": "17212c78-cd1a-4fa0-a986-0d6d926172a2",
        "floors": 1.5,
        "name": "Turenne House",
        "born": "1871-01-01",
        "died": "1971-01-01",
        "cause_of_death": "relocated",
        "source_sheet": "research",
        "roof_type": "gambrel"
      },
      "geometry": {
        "type": "Polygon",
        "coordinates": [
          [
            [
              -97.14236308613376,
              49.7661519408034
            ],
            [
              -97.14228391534441,
              49.766048626906624
            ],
            [
              -97.14238559862363,
              49.76601629776016
            ],
            [
              -97.142464769413,
              49.766119611656926
            ],
            [
              -97.14236308613376,
              49.7661519408034
            ]
          ]
        ]
      },
      "_bbox": {
        "minLon": -97.142464769413,
        "maxLon": -97.14228391534441,
        "minLat": 49.76601629776016,
        "maxLat": 49.7661519408034
      }
    },
    {
      "type": "Feature",
      "properties": {
        "id": 2,
        "material": "log",
        "snapped": false,
        "pf_uid": "d9129c28-ccc7-41fe-8ed2-8f6d2961dccf",
        "floors": 2,
        "name": "McDermot's Row / Red River Hall",
        "born": "1869-01-01",
        "died": "1875-01-11",
        "cause_of_death": "fire",
        "source_sheet": "research / MHS"
      },
      "geometry": {
        "type": "Polygon",
        "coordinates": [
          [
            [
              -97.13851764760813,
              49.896782845935114
            ],
            [
              -97.13853122278503,
              49.896836030590165
            ],
            [
              -97.13835920803315,
              49.896854247021764
            ],
            [
              -97.13834563285623,
              49.89680106236672
            ],
            [
              -97.13851764760813,
              49.896782845935114
            ]
          ]
        ]
      },
      "_bbox": {
        "minLon": -97.13853122278503,
        "maxLon": -97.13834563285623,
        "minLat": 49.896782845935114,
        "maxLat": 49.896854247021764
      }
    },
    {
      "type": "Feature",
      "properties": {
        "id": 3,
        "material": "stone",
        "snapped": false,
        "pf_uid": "746a57f9-0d4e-4882-882d-3f50038fcd75",
        "floors": 1,
        "name": "Kildonan Presbyterian Church",
        "born": "1854-01-01"
      },
      "geometry": {
        "type": "Polygon",
        "coordinates": [
          [
            [
              -97.09894116201912,
              49.953040500037176
            ],
            [
              -97.09875770155678,
              49.953160163316944
            ],
            [
              -97.09863846065795,
              49.95308431511569
            ],
            [
              -97.09882192112029,
              49.95296465183592
            ],
            [
              -97.09894116201912,
              49.953040500037176
            ]
          ]
        ]
      },
      "_bbox": {
        "minLon": -97.09894116201912,
        "maxLon": -97.09863846065795,
        "minLat": 49.95296465183592,
        "maxLat": 49.953160163316944
      }
    },
    {
      "type": "Feature",
      "properties": {
        "id": 4,
        "type": "fence",
        "material": "stone",
        "snapped": false,
        "pf_uid": "4efd6959-884f-47c0-954f-afd4dbfdbb7b",
        "floors": 0.3,
        "name": "KPC fence",
        "born": "1854-01-01",
        "died": "1880-01-01",
        "roof_type": "flat",
        "no_windows": true
      },
      "geometry": {
        "type": "LineString",
        "coordinates": [
          [
            -97.09888401069415,
            49.95257807497048
          ],
          [
            -97.09959888528243,
            49.95295482120063
          ],
          [
            -97.09878823802204,
            49.95354748047495
          ],
          [
            -97.09807678388634,
            49.9531619214675
          ],
          [
            -97.09889769250445,
            49.95257807497048
          ]
        ]
      },
      "_bbox": {
        "minLon": -97.09959888528243,
        "maxLon": -97.09807678388634,
        "minLat": 49.95257807497048,
        "maxLat": 49.95354748047495
      }
    },
    {
      "type": "Feature",
      "properties": {
        "id": 5,
        "material": "wood",
        "snapped": false,
        "pf_uid": "c681a2b5-8c43-454f-8b18-6f123ef604db",
        "floors": 1,
        "name": "Delorme House",
        "born": "1857-01-01",
        "died": "1982-06-01",
        "cause_of_death": "Moved"
      },
      "geometry": {
        "type": "Polygon",
        "coordinates": [
          [
            [
              -97.12311908253054,
              49.67904761080845
            ],
            [
              -97.12312383697291,
              49.679101422406546
            ],
            [
              -97.1229837155204,
              49.679106558900614
            ],
            [
              -97.12297896107802,
              49.679052747302514
            ],
            [
              -97.12311908253054,
              49.67904761080845
            ]
          ]
        ]
      },
      "_bbox": {
        "minLon": -97.12312383697291,
        "maxLon": -97.12297896107802,
        "minLat": 49.67904761080845,
        "maxLat": 49.679106558900614
      }
    },
    {
      "type": "Feature",
      "properties": {
        "id": 6,
        "material": "log",
        "snapped": false,
        "pf_uid": "678e0be9-cba0-4ec9-a72e-37d31d878cc7",
        "floors": 1,
        "name": "Turenne House",
        "born": "1873-01-01",
        "died": "1971-01-01",
        "cause_of_death": "relocated",
        "source_sheet": "research",
        "roof_type": "gambrel",
        "copied_from": "17212c78-cd1a-4fa0-a986-0d6d926172a2"
      },
      "geometry": {
        "type": "Polygon",
        "coordinates": [
          [
            [
              -97.14246476941297,
              49.7661196116569
            ],
            [
              -97.14243289836348,
              49.76607802154084
            ],
            [
              -97.1425107922871,
              49.76605325597384
            ],
            [
              -97.14254266333658,
              49.76609484608988
            ],
            [
              -97.14246476941297,
              49.7661196116569
            ]
          ]
        ]
      },
      "_bbox": {
        "minLon": -97.14254266333658,
        "maxLon": -97.14243289836348,
        "minLat": 49.76605325597384,
        "maxLat": 49.7661196116569
      }
    },
    {
      "type": "Feature",
      "properties": {
        "id": 7,
        "material": "wood",
        "snapped": false,
        "pf_uid": "2fee18a1-94f6-4f07-a41c-89ee37131383",
        "floors": 1,
        "name": "La Chapelle de Notre-Dame-du-Bon-Secours (St. Norbert Chapel)",
        "born": "1875-01-01"
      },
      "geometry": {
        "type": "Polygon",
        "coordinates": [
          [
            [
              -97.14456662726495,
              49.765079088010125
            ],
            [
              -97.14452746335809,
              49.765122787282
            ],
            [
              -97.1444215895296,
              49.76508341968652
            ],
            [
              -97.14446075343646,
              49.765039720414634
            ],
            [
              -97.14456662726495,
              49.765079088010125
            ]
          ]
        ]
      },
      "_bbox": {
        "minLon": -97.14456662726495,
        "maxLon": -97.1444215895296,
        "minLat": 49.765039720414634,
        "maxLat": 49.765122787282
      }
    },
    {
      "type": "Feature",
      "properties": {
        "id": 8,
        "material": "log",
        "snapped": false,
        "pf_uid": "b2e85b66-22d4-4272-90d4-b29f014bcad5",
        "floors": 1,
        "name": "St. Boniface Cathedral (1st)",
        "born": "1818-01-01",
        "died": "1825-01-01",
        "cause_of_death": "replaced?"
      },
      "geometry": {
        "type": "Polygon",
        "coordinates": [
          [
            [
              -97.1217627625706,
              49.88928835547434
            ],
            [
              -97.12207635097116,
              49.88927567013094
            ],
            [
              -97.12208699720041,
              49.88938486243743
            ],
            [
              -97.12177340879985,
              49.88939754778083
            ],
            [
              -97.1217627625706,
              49.88928835547434
            ]
          ]
        ]
      },
      "_bbox": {
        "minLon": -97.12208699720041,
        "maxLon": -97.1217627625706,
        "minLat": 49.88927567013094,
        "maxLat": 49.88939754778083
      }
    },
    {
      "type": "Feature",
      "properties": {
        "id": 9,
        "material": "stone",
        "snapped": false,
        "pf_uid": "daaa712b-ec5f-4bfb-9143-1984bf26f60e",
        "floors": 1.5,
        "notes": "died date estimated",
        "name": "St. Boniface Cathedral ",
        "born": "1863-01-01",
        "died": "1910-01-01",
        "cause_of_death": "replaced?",
        "copied_from": "b2e85b66-22d4-4272-90d4-b29f014bcad5"
      },
      "geometry": {
        "type": "Polygon",
        "coordinates": [
          [
            [
              -97.1217627625706,
              49.88928835547434
            ],
            [
              -97.12207635097116,
              49.88927567013094
            ],
            [
              -97.12208699720041,
              49.88938486243743
            ],
            [
              -97.12177340879985,
              49.88939754778083
            ],
            [
              -97.1217627625706,
              49.88928835547434
            ]
          ]
        ]
      },
      "_bbox": {
        "minLon": -97.12208699720041,
        "maxLon": -97.1217627625706,
        "minLat": 49.88927567013094,
        "maxLat": 49.88939754778083
      }
    },
    {
      "type": "Feature",
      "properties": {
        "id": 10,
        "material": "stone",
        "snapped": false,
        "pf_uid": "855f3cd7-20ec-4a84-b49d-5319f8cc43a7",
        "floors": 3,
        "notes": "died date estimated",
        "name": "St. Boniface Cathedral ",
        "born": "1863-01-01",
        "died": "1910-01-01",
        "cause_of_death": "replaced?",
        "roof_type": "conical",
        "copied_from": "daaa712b-ec5f-4bfb-9143-1984bf26f60e"
      },
      "geometry": {
        "type": "Polygon",
        "coordinates": [
          [
            [
              -97.1219966986369,
              49.88930770138482
            ],
            [
              -97.1220708463938,
              49.8893047019443
            ],
            [
              -97.12207525573243,
              49.88934992601779
            ],
            [
              -97.12200110797554,
              49.88935292545832
            ],
            [
              -97.1219966986369,
              49.88930770138482
            ]
          ]
        ]
      },
      "_bbox": {
        "minLon": -97.12207525573243,
        "maxLon": -97.1219966986369,
        "minLat": 49.8893047019443,
        "maxLat": 49.88935292545832
      }
    }
  ]
}