{"type": "FeatureCollection", "attribution": "© OpenStreetMap contributors (ODbL) — Legislative grounds", "features": [{"type": "Feature", "properties": {"id": "c808934c-92dd-50dc-afde-48ddd54be212", "uid": "c808934c-92dd-50dc-afde-48ddd54be212", "pf_uid": "c808934c-92dd-50dc-afde-48ddd54be212", "source_file": "OSM (Legislative grounds, 2026-10-01)", "osm_id": "way/26378283", "born_basis": "documented", "cohort": "legislative_grounds", "name": "Manitoba Legislative Building", "material": "stone", "floors": 4, "born": "1920-07-15", "construction_months": 84, "roof_type": "flat", "notes": "Built 1913–1920 (opened 15 July 1920), Tyndall limestone. Footprint from OSM."}, "geometry": {"type": "Polygon", "coordinates": [[[-97.1472951, 49.8848526], [-97.1472469, 49.8848632], [-97.1472506, 49.8848702], [-97.1472544, 49.8848775], [-97.1472575, 49.8848834], [-97.147345, 49.884864], [-97.1473921, 49.8849521], [-97.1473255, 49.8849668], [-97.1471495, 49.8850059], [-97.1469613, 49.8850476], [-97.1468962, 49.8850621], [-97.1468385, 49.8849542], [-97.1468803, 49.8849449], [-97.1468697, 49.8849267], [-97.1464018, 49.88503], [-97.1463901, 49.885008], [-97.1463706, 49.8850123], [-97.1462974, 49.8848753], [-97.1463113, 49.8848722], [-97.1463005, 49.8848519], [-97.1466643, 49.8847712], [-97.1465643, 49.8845842], [-97.1465495, 49.8845875], [-97.1465555, 49.8845988], [-97.1464686, 49.8846179], [-97.1464463, 49.8846228], [-97.1464089, 49.884552], [-97.1463725, 49.8844832], [-97.1463949, 49.8844783], [-97.1464811, 49.8844593], [-97.1464847, 49.8844662], [-97.1464996, 49.8844629], [-97.146403, 49.8842794], [-97.1460404, 49.8843594], [-97.1460286, 49.8843372], [-97.1460056, 49.8843423], [-97.1459339, 49.884208], [-97.1459497, 49.8842045], [-97.1459381, 49.8841828], [-97.1464092, 49.8840785], [-97.1463979, 49.8840555], [-97.146463, 49.8840407], [-97.1464597, 49.8840338], [-97.1464363, 49.8839896], [-97.1464168, 49.8839534], [-97.1464412, 49.8839479], [-97.1465607, 49.8839213], [-97.1466801, 49.8838946], [-97.1467037, 49.8838894], [-97.1467139, 49.8839084], [-97.1467238, 49.883927], [-97.1467466, 49.8839696], [-97.1467496, 49.8839754], [-97.1468139, 49.8839607], [-97.1468255, 49.8839824], [-97.1472929, 49.8838783], [-97.1473033, 49.8838977], [-97.1473183, 49.8838944], [-97.147393, 49.8840332], [-97.1473792, 49.8840363], [-97.1473905, 49.8840572], [-97.1470256, 49.8841391], [-97.1471299, 49.8843254], [-97.1471444, 49.8843222], [-97.1471384, 49.8843107], [-97.1472256, 49.8842918], [-97.1472455, 49.8842876], [-97.1472825, 49.8843582], [-97.1473185, 49.884427], [-97.1472986, 49.8844315], [-97.1472126, 49.8844502], [-97.1472091, 49.8844435], [-97.1471939, 49.8844468], [-97.1472908, 49.8846294], [-97.1476544, 49.8845496], [-97.1476657, 49.884571], [-97.1476814, 49.8845675], [-97.1477521, 49.8847015], [-97.1477381, 49.8847045], [-97.14775, 49.8847271], [-97.1473218, 49.8848207], [-97.1472828, 49.8848292], [-97.1472951, 49.8848526]]]}}, {"type": "Feature", "properties": {"id": "4c7755c4-620d-5359-8bc9-21afdfd26dcb", "uid": "4c7755c4-620d-5359-8bc9-21afdfd26dcb", "pf_uid": "4c7755c4-620d-5359-8bc9-21afdfd26dcb", "source_file": "OSM (Legislative grounds, 2026-10-01)", "osm_id": "way/26378283", "born_basis": "documented", "cohort": "legislative_grounds", "name": "Manitoba Legislative Building — dome", "material": "stone", "floors": 11, "born": "1920-07-15", "construction_months": 84, "roof_type": "dome", "roof_height": 17, "roof_color": "copper", "parapet": false, "no_windows": true, "notes": "Central drum and dome (approximate; Golden Boy at ~77 m)."}, "geometry": {"type": "Polygon", "coordinates": [[[-97.14670523473995, 49.88445095853658], [-97.14671274061195, 49.88448149381271], [-97.14673452350084, 49.88450904008325], [-97.14676845114573, 49.88453090092733], [-97.14681120247232, 49.88454493645321], [-97.14685859268292, 49.88454977276583], [-97.14690598289351, 49.88454493645321], [-97.1469487342201, 49.88453090092733], [-97.146982661865, 49.88450904008325], [-97.14700444475389, 49.88448149381271], [-97.14701195062588, 49.88445095853658], [-97.14700444475389, 49.88442042326046], [-97.146982661865, 49.884392876989914], [-97.1469487342201, 49.884371016145835], [-97.14690598289351, 49.884356980619955], [-97.14685859268292, 49.884352144307336], [-97.14681120247232, 49.884356980619955], [-97.14676845114573, 49.884371016145835], [-97.14673452350084, 49.884392876989914], [-97.14671274061195, 49.88442042326046], [-97.14670523473995, 49.88445095853658]]]}}, {"type": "Feature", "properties": {"id": "7eb2358b-72e5-581b-ac40-237c77917f22", "uid": "7eb2358b-72e5-581b-ac40-237c77917f22", "pf_uid": "7eb2358b-72e5-581b-ac40-237c77917f22", "source_file": "OSM (Legislative grounds, 2026-10-01)", "osm_id": "way/306726633", "born_basis": "documented", "cohort": "legislative_grounds", "name": "Government House (Lieutenant Governor's residence)", "material": "brick", "floors": 3, "born": "1884-06-01", "construction_months": 12, "roof_type": "mansard", "notes": "Built 1883–84 (Second Empire, brick per OSM). Footprint from OSM."}, "geometry": {"type": "Polygon", "coordinates": [[[-97.1454497, 49.884022], [-97.1451773, 49.8840817], [-97.1451478, 49.8840249], [-97.1451065, 49.8840335], [-97.1450998, 49.8840202], [-97.1450919, 49.8840219], [-97.145076, 49.8839907], [-97.1450841, 49.883989], [-97.1450772, 49.8839754], [-97.1451186, 49.8839667], [-97.1450884, 49.8839104], [-97.1451676, 49.883893], [-97.1452379, 49.8838781], [-97.1451996, 49.8838037], [-97.1451813, 49.8837686], [-97.1452414, 49.8837557], [-97.1453038, 49.883742], [-97.1453223, 49.8837773], [-97.1453611, 49.8838516], [-97.1453764, 49.883881], [-97.1454979, 49.8838552], [-97.1455277, 49.8839135], [-97.1454707, 49.8839254], [-97.1454812, 49.8839459], [-97.1455661, 49.8839271], [-97.1456647, 49.8841128], [-97.1456412, 49.884118], [-97.1456461, 49.8841272], [-97.1456519, 49.8841382], [-97.1455793, 49.8841543], [-97.1455563, 49.8841593], [-97.1455455, 49.884139], [-97.1455154, 49.8841457], [-97.1454497, 49.884022]]]}}, {"type": "Feature", "properties": {"id": "f974a298-6517-5a46-afdb-a1cb2239aaf5", "uid": "f974a298-6517-5a46-afdb-a1cb2239aaf5", "pf_uid": "f974a298-6517-5a46-afdb-a1cb2239aaf5", "source_file": "OSM (Legislative grounds, 2026-10-01)", "osm_id": "way/98905489", "born_basis": "documented", "cohort": "legislative_grounds", "name": "Legislative grounds greenhouse", "material": "wood", "floors": 1, "born": "1925-06-01", "notes": "Date unknown (placeholder 1925)."}, "geometry": {"type": "Polygon", "coordinates": [[[-97.1442816, 49.8828119], [-97.144205, 49.882829], [-97.1441397, 49.8827074], [-97.1442163, 49.8826903], [-97.1442816, 49.8828119]]]}}, {"type": "Feature", "properties": {"id": "956ec561-1102-504a-ad34-c246d821c01f", "uid": "956ec561-1102-504a-ad34-c246d821c01f", "pf_uid": "956ec561-1102-504a-ad34-c246d821c01f", "source_file": "OSM (Legislative grounds, 2026-10-01)", "osm_id": "way/98905492", "born_basis": "documented", "cohort": "legislative_grounds", "name": "Legislative grounds greenhouse", "material": "wood", "floors": 1, "born": "1925-06-01", "notes": "Date unknown (placeholder 1925)."}, "geometry": {"type": "Polygon", "coordinates": [[[-97.1443958, 49.8826417], [-97.1443116, 49.8826605], [-97.1442447, 49.8825358], [-97.1443289, 49.882517], [-97.1443958, 49.8826417]]]}}, {"type": "Feature", "properties": {"id": "c2ded7f6-b0f7-5f1c-8aff-166000b110a1", "uid": "c2ded7f6-b0f7-5f1c-8aff-166000b110a1", "pf_uid": "c2ded7f6-b0f7-5f1c-8aff-166000b110a1", "source_file": "OSM (Legislative grounds, 2026-10-01)", "osm_id": "way/98905494", "born_basis": "documented", "cohort": "legislative_grounds", "name": "Legislative grounds greenhouse", "material": "wood", "floors": 1, "born": "1925-06-01", "notes": "Date unknown (placeholder 1925)."}, "geometry": {"type": "Polygon", "coordinates": [[[-97.1442886, 49.8826345], [-97.1441956, 49.8826552], [-97.1441295, 49.8825321], [-97.1442225, 49.8825114], [-97.1442886, 49.8826345]]]}}, {"type": "Feature", "properties": {"id": "5d90fc41-9d52-559a-a204-04650713217d", "uid": "5d90fc41-9d52-559a-a204-04650713217d", "pf_uid": "5d90fc41-9d52-559a-a204-04650713217d", "source_file": "OSM (Legislative grounds, 2026-10-01)", "osm_id": "way/98905496", "born_basis": "documented", "cohort": "legislative_grounds", "name": "Legislative grounds greenhouse", "material": "wood", "floors": 1, "born": "1925-06-01", "notes": "Date unknown (placeholder 1925)."}, "geometry": {"type": "Polygon", "coordinates": [[[-97.1441908, 49.8826594], [-97.1441241, 49.882535], [-97.1440448, 49.8825526], [-97.1441116, 49.8826771], [-97.1441908, 49.8826594]]]}}, {"type": "Feature", "properties": {"id": "52f3541a-fe95-57cf-ae95-4374d8abd81b", "uid": "52f3541a-fe95-57cf-ae95-4374d8abd81b", "pf_uid": "52f3541a-fe95-57cf-ae95-4374d8abd81b", "source_file": "OSM (Legislative grounds, 2026-10-01)", "osm_id": "way/98905498", "born_basis": "documented", "cohort": "legislative_grounds", "name": "Legislative grounds greenhouse", "material": "wood", "floors": 1, "born": "1925-06-01", "notes": "Date unknown (placeholder 1925)."}, "geometry": {"type": "Polygon", "coordinates": [[[-97.1440168, 49.8830498], [-97.1441775, 49.883014], [-97.1440345, 49.8827476], [-97.1438738, 49.8827834], [-97.1440168, 49.8830498]]]}}, {"type": "Feature", "properties": {"id": "b556126e-d7c2-5516-a897-b765bdd0cb2d", "uid": "b556126e-d7c2-5516-a897-b765bdd0cb2d", "pf_uid": "b556126e-d7c2-5516-a897-b765bdd0cb2d", "source_file": "OSM (Legislative grounds, 2026-10-01)", "osm_id": "way/98905501", "born_basis": "documented", "cohort": "legislative_grounds", "name": "Legislative grounds shed", "material": "wood", "floors": 1, "born": "1925-06-01", "notes": "Date unknown (placeholder)."}, "geometry": {"type": "Polygon", "coordinates": [[[-97.1443746, 49.8827911], [-97.1444926, 49.8827648], [-97.1444503, 49.882686], [-97.1443323, 49.8827123], [-97.1443746, 49.8827911]]]}}, {"type": "Feature", "properties": {"id": "fe133d1e-e1ee-5f6e-b8d7-30f38fe6fe58", "uid": "fe133d1e-e1ee-5f6e-b8d7-30f38fe6fe58", "pf_uid": "fe133d1e-e1ee-5f6e-b8d7-30f38fe6fe58", "source_file": "OSM (Legislative grounds, 2026-10-01)", "osm_id": "way/1386320773", "born_basis": "documented", "cohort": "legislative_grounds", "name": "Government House outbuilding", "material": "wood", "floors": 1, "born": "1920-06-01", "notes": "Date unknown (placeholder)."}, "geometry": {"type": "Polygon", "coordinates": [[[-97.145441, 49.8837522], [-97.1453223, 49.8837773], [-97.1453038, 49.883742], [-97.1452903, 49.8837189], [-97.145277, 49.883696], [-97.1452618, 49.8836699], [-97.1452457, 49.8836423], [-97.1452048, 49.8836514], [-97.1451836, 49.8836121], [-97.1452001, 49.8836084], [-97.1451277, 49.8834739], [-97.1452043, 49.8834568], [-97.1452768, 49.8835914], [-97.1453461, 49.8835759], [-97.1454327, 49.8837369], [-97.145441, 49.8837522]]]}}, {"type": "Feature", "properties": {"id": "2d23c59f-c662-5030-aeb1-616aba3379a5", "uid": "2d23c59f-c662-5030-aeb1-616aba3379a5", "pf_uid": "2d23c59f-c662-5030-aeb1-616aba3379a5", "source_file": "OSM (Legislative grounds, 2026-10-01)", "osm_id": "way/4577798", "born_basis": "documented", "cohort": "legislative_grounds", "name": "Drive — Legislative grounds", "material": "concrete", "floors": 0.1, "type": "walkway", "born": "1884-06-01"}, "geometry": {"type": "Polygon", "coordinates": [[[-97.14529664186915, 49.883236763604515], [-97.14532093872499, 49.88328205774582], [-97.14533232393605, 49.88330324733515], [-97.14555813511015, 49.88369858894138], [-97.1457555159092, 49.88404881538758], [-97.14580926579107, 49.88415269882482], [-97.14599425710341, 49.884510392065984], [-97.1460605807156, 49.884630736426104], [-97.14612440178705, 49.88475587626999], [-97.14638448814777, 49.88523346421219], [-97.14631871185223, 49.88524833578781], [-97.14605839821296, 49.88477032373001], [-97.1459946192844, 49.8846452635739], [-97.14592834289658, 49.88452500793402], [-97.14574313420893, 49.88416690117518], [-97.1456896840908, 49.88406358461243], [-97.14549266488984, 49.88371401105862], [-97.14526667606394, 49.883318352664844], [-97.145255061275, 49.88329674225419], [-97.14523075813085, 49.88325143639548], [-97.14529664186915, 49.883236763604515]]]}}, {"type": "Feature", "properties": {"id": "8e1a8860-3b20-5b65-8b32-38fd89283602", "uid": "8e1a8860-3b20-5b65-8b32-38fd89283602", "pf_uid": "8e1a8860-3b20-5b65-8b32-38fd89283602", "source_file": "OSM (Legislative grounds, 2026-10-01)", "osm_id": "way/4577803", "born_basis": "documented", "cohort": "legislative_grounds", "name": "Drive — Legislative grounds", "material": "concrete", "floors": 0.1, "type": "walkway", "born": "1884-06-01"}, "geometry": {"type": "Polygon", "coordinates": [[[-97.14554713277926, 49.883688742632046], [-97.14572371695013, 49.883779673721456], [-97.14590821237586, 49.88383656414913], [-97.14610558797418, 49.883875098992036], [-97.14636080769101, 49.883885387317086], [-97.14635639230899, 49.88393021268292], [-97.14609321202582, 49.883919301007964], [-97.14588298762415, 49.88387843585087], [-97.14568668304986, 49.883817726278544], [-97.14550366722074, 49.883723857367954], [-97.14554713277926, 49.883688742632046]]]}}, {"type": "Feature", "properties": {"id": "d667386a-524e-5afd-8e1c-5feadbeeb60a", "uid": "d667386a-524e-5afd-8e1c-5feadbeeb60a", "pf_uid": "d667386a-524e-5afd-8e1c-5feadbeeb60a", "source_file": "OSM (Legislative grounds, 2026-10-01)", "osm_id": "way/4577808", "born_basis": "documented", "cohort": "legislative_grounds", "name": "Drive — Legislative grounds", "material": "concrete", "floors": 0.1, "type": "walkway", "born": "1920-07-15"}, "geometry": {"type": "Polygon", "coordinates": [[[-97.14736214504967, 49.88370241247336], [-97.14671304504967, 49.88384781247336], [-97.14669015495033, 49.883805387526635], [-97.14733925495034, 49.883659987526634], [-97.14736214504967, 49.88370241247336]]]}}, {"type": "Feature", "properties": {"id": "ac44a39a-b997-5ff8-92c3-773d845fc925", "uid": "ac44a39a-b997-5ff8-92c3-773d845fc925", "pf_uid": "ac44a39a-b997-5ff8-92c3-773d845fc925", "source_file": "OSM (Legislative grounds, 2026-10-01)", "osm_id": "way/4577809", "born_basis": "documented", "cohort": "legislative_grounds", "name": "Drive — Legislative grounds", "material": "concrete", "floors": 0.1, "type": "walkway", "born": "1920-07-15"}, "geometry": {"type": "Polygon", "coordinates": [[[-97.14800828249719, 49.88489042644238], [-97.14743832846763, 49.88501731618477], [-97.14736035234377, 49.88503483314554], [-97.14718519968109, 49.88507324480485], [-97.14699748655207, 49.88511498055652], [-97.14636340340252, 49.88526203078748], [-97.14633979659749, 49.88521976921252], [-97.14697431344794, 49.88507261944348], [-97.14716260031891, 49.88503075519515], [-97.14733764765624, 49.88499236685446], [-97.14741547153237, 49.88497488381523], [-97.1479855175028, 49.88484797355761], [-97.14800828249719, 49.88489042644238]]]}}, {"type": "Feature", "properties": {"id": "eebcd60c-b992-541c-8673-816276514104", "uid": "eebcd60c-b992-541c-8673-816276514104", "pf_uid": "eebcd60c-b992-541c-8673-816276514104", "source_file": "OSM (Legislative grounds, 2026-10-01)", "osm_id": "way/25601169", "born_basis": "documented", "cohort": "legislative_grounds", "name": "Path — Legislative grounds", "material": "stone", "floors": 0.1, "type": "walkway", "born": "1920-07-15"}, "geometry": {"type": "Polygon", "coordinates": [[[-97.14769393720029, 49.88257806702264], [-97.14763750288837, 49.88259403545946], [-97.1474707957728, 49.88266079762637], [-97.14730894189505, 49.88271349381215], [-97.14688673573389, 49.882812372513904], [-97.14645697768883, 49.88290596299466], [-97.1461415074878, 49.88298105618439], [-97.14598710358413, 49.88301510197144], [-97.14566716779898, 49.88308526524587], [-97.14533402539699, 49.88316372161079], [-97.14521917797764, 49.883181379338566], [-97.14509588313558, 49.8831844794711], [-97.14493519000017, 49.883179051502985], [-97.14428105777353, 49.88314003383435], [-97.14428414222647, 49.88311856616565], [-97.14493760999984, 49.88315754849702], [-97.14509611686441, 49.8831629205289], [-97.14521462202235, 49.883160020661435], [-97.14532437460302, 49.8831430783892], [-97.14565603220102, 49.88306493475413], [-97.14597629641585, 49.88299469802857], [-97.14613029251221, 49.8829607438156], [-97.14644582231118, 49.88288563700534], [-97.1468756642661, 49.8827920274861], [-97.14729565810497, 49.88269370618785], [-97.14745440422719, 49.88264200237363], [-97.14762189711162, 49.88257496454054], [-97.1476804627997, 49.88255833297736], [-97.14769393720029, 49.88257806702264]]]}}, {"type": "Feature", "properties": {"id": "1054f6d6-b076-5d6b-aa80-7fd701b1501d", "uid": "1054f6d6-b076-5d6b-aa80-7fd701b1501d", "pf_uid": "1054f6d6-b076-5d6b-aa80-7fd701b1501d", "source_file": "OSM (Legislative grounds, 2026-10-01)", "osm_id": "way/25601170", "born_basis": "documented", "cohort": "legislative_grounds", "name": "Path — Legislative grounds", "material": "stone", "floors": 0.1, "type": "walkway", "born": "1920-07-15"}, "geometry": {"type": "Polygon", "coordinates": [[[-97.14641392394657, 49.88282840704896], [-97.14654040090433, 49.88280105769529], [-97.14646693022716, 49.882658277462795], [-97.14616555760803, 49.882727518305835], [-97.14610914189467, 49.88268222267346], [-97.14609272990555, 49.882608786652895], [-97.14612587009447, 49.8826058133471], [-97.14614005810532, 49.88267397732654], [-97.14617524239198, 49.88270688169417], [-97.14648166977283, 49.88263892253721], [-97.14657059909568, 49.88281034230471], [-97.14642567605344, 49.882848592951035], [-97.14641392394657, 49.88282840704896]]]}}, {"type": "Feature", "properties": {"id": "9e7de6e5-5fc0-5880-93a4-2c830c0da47c", "uid": "9e7de6e5-5fc0-5880-93a4-2c830c0da47c", "pf_uid": "9e7de6e5-5fc0-5880-93a4-2c830c0da47c", "source_file": "OSM (Legislative grounds, 2026-10-01)", "osm_id": "way/25601171", "born_basis": "documented", "cohort": "legislative_grounds", "name": "Path — Legislative grounds", "material": "stone", "floors": 0.1, "type": "walkway", "born": "1920-07-15"}, "geometry": {"type": "Polygon", "coordinates": [[[-97.14564545275188, 49.88301906866239], [-97.14547906749404, 49.8830533892085], [-97.14539093485627, 49.88288531212377], [-97.14568543698961, 49.88281616589797], [-97.14567451318216, 49.88277747896318], [-97.14562122102717, 49.882716887689895], [-97.14565037897282, 49.882706312310106], [-97.14570628681786, 49.88277072103682], [-97.14571396301038, 49.88282743410203], [-97.14542106514372, 49.88289468787624], [-97.14549373250595, 49.883034010791505], [-97.14563434724813, 49.88299873133761], [-97.14564545275188, 49.88301906866239]]]}}, {"type": "Feature", "properties": {"id": "f3f8755b-dcd7-55a8-8407-8380add71bc3", "uid": "f3f8755b-dcd7-55a8-8407-8380add71bc3", "pf_uid": "f3f8755b-dcd7-55a8-8407-8380add71bc3", "source_file": "OSM (Legislative grounds, 2026-10-01)", "osm_id": "way/25657205", "born_basis": "documented", "cohort": "legislative_grounds", "name": "Path — Legislative grounds", "material": "stone", "floors": 0.1, "type": "walkway", "born": "1920-07-15"}, "geometry": {"type": "Polygon", "coordinates": [[[-97.14784826711282, 49.88422674045452], [-97.14806100636049, 49.882959826699356], [-97.14807302434191, 49.88290911132013], [-97.14812602211671, 49.88285074201163], [-97.14820687035913, 49.88279764241221], [-97.14823072964086, 49.88281275758779], [-97.14815257788328, 49.88286385798837], [-97.14810457565808, 49.882916288679866], [-97.1480941936395, 49.88296257330064], [-97.14788153288718, 49.884229059545476], [-97.14784826711282, 49.88422674045452]]]}}, {"type": "Feature", "properties": {"id": "81e433da-4579-5068-acb8-d258dbb43f45", "uid": "81e433da-4579-5068-acb8-d258dbb43f45", "pf_uid": "81e433da-4579-5068-acb8-d258dbb43f45", "source_file": "OSM (Legislative grounds, 2026-10-01)", "osm_id": "way/25657208", "born_basis": "documented", "cohort": "legislative_grounds", "name": "Drive — Legislative grounds", "material": "concrete", "floors": 0.1, "type": "walkway", "born": "1920-07-15"}, "geometry": {"type": "Polygon", "coordinates": [[[-97.14774987692383, 49.88441283621543], [-97.14755061859613, 49.884454515392626], [-97.14748821894541, 49.88445031610877], [-97.14743713433666, 49.88442387489309], [-97.14738958637824, 49.88433340124387], [-97.14734893038809, 49.8842574314038], [-97.14735116634144, 49.88421555680765], [-97.14740165678727, 49.884180737139715], [-97.14759242379404, 49.88412558373321], [-97.14762077620597, 49.884166616266796], [-97.14744134321272, 49.88421766286028], [-97.14741563365855, 49.88423264319234], [-97.14741766961191, 49.8842499685962], [-97.14745561362176, 49.88431899875612], [-97.14749446566336, 49.884398325106915], [-97.14751438105459, 49.88440868389124], [-97.14754278140389, 49.88440988460737], [-97.14772812307618, 49.88437016378457], [-97.14774987692383, 49.88441283621543]]]}}, {"type": "Feature", "properties": {"id": "7a6c7ab1-f477-5293-bcae-bad56101a9c2", "uid": "7a6c7ab1-f477-5293-bcae-bad56101a9c2", "pf_uid": "7a6c7ab1-f477-5293-bcae-bad56101a9c2", "source_file": "OSM (Legislative grounds, 2026-10-01)", "osm_id": "way/25657209", "born_basis": "documented", "cohort": "legislative_grounds", "name": "Path — Legislative grounds", "material": "stone", "floors": 0.1, "type": "walkway", "born": "1920-07-15"}, "geometry": {"type": "Polygon", "coordinates": [[[-97.14641442923165, 49.884562173981976], [-97.14630362788417, 49.884587174285976], [-97.14603313362643, 49.88464817298994], [-97.14595974071511, 49.884664771387925], [-97.1459486592849, 49.88464442861207], [-97.14602206637356, 49.884627827010064], [-97.14629257211583, 49.884566825714025], [-97.14640337076834, 49.88454182601802], [-97.14641442923165, 49.884562173981976]]]}}, {"type": "Feature", "properties": {"id": "9d490e16-faf0-5c96-a424-32d33908f302", "uid": "9d490e16-faf0-5c96-a424-32d33908f302", "pf_uid": "9d490e16-faf0-5c96-a424-32d33908f302", "source_file": "OSM (Legislative grounds, 2026-10-01)", "osm_id": "way/25657212", "born_basis": "documented", "cohort": "legislative_grounds", "name": "Path — Legislative grounds", "material": "stone", "floors": 0.1, "type": "walkway", "born": "1920-07-15"}, "geometry": {"type": "Polygon", "coordinates": [[[-97.14583358077691, 49.88471599073234], [-97.14528781225334, 49.88577618956904], [-97.14525708718472, 49.8857953370071], [-97.14523411281527, 49.885779662992896], [-97.14525958774666, 49.885764610430954], [-97.14580181922308, 49.88470920926766], [-97.14583358077691, 49.88471599073234]]]}}, {"type": "Feature", "properties": {"id": "8e2b1234-2013-5638-a4cc-9d4313e8d970", "uid": "8e2b1234-2013-5638-a4cc-9d4313e8d970", "pf_uid": "8e2b1234-2013-5638-a4cc-9d4313e8d970", "source_file": "OSM (Legislative grounds, 2026-10-01)", "osm_id": "way/25657213", "born_basis": "documented", "cohort": "legislative_grounds", "name": "Path — Legislative grounds", "material": "stone", "floors": 0.1, "type": "walkway", "born": "1920-07-15"}, "geometry": {"type": "Polygon", "coordinates": [[[-97.14816490057923, 49.88516127358574], [-97.14929482429024, 49.8853803356765], [-97.14931084490006, 49.885400120059565], [-97.14928055509993, 49.88540927994044], [-97.14927297570976, 49.885396664323494], [-97.14815529942076, 49.88518192641426], [-97.14816490057923, 49.88516127358574]]]}}, {"type": "Feature", "properties": {"id": "2ed85255-d394-5f28-a0c0-70835f17c29b", "uid": "2ed85255-d394-5f28-a0c0-70835f17c29b", "pf_uid": "2ed85255-d394-5f28-a0c0-70835f17c29b", "source_file": "OSM (Legislative grounds, 2026-10-01)", "osm_id": "way/25657214", "born_basis": "documented", "cohort": "legislative_grounds", "name": "Drive — Legislative grounds", "material": "concrete", "floors": 0.1, "type": "walkway", "born": "1920-07-15"}, "geometry": {"type": "Polygon", "coordinates": [[[-97.14595000887455, 49.88449645330669], [-97.1461187982534, 49.88445984943956], [-97.14621373890925, 49.88446809660261], [-97.14629328484088, 49.88450307269395], [-97.14633122454339, 49.88457001343007], [-97.14636365407765, 49.88464120300329], [-97.14633052235413, 49.88471021514621], [-97.14624306687942, 49.88475446184877], [-97.14610222302493, 49.884784447591755], [-97.14608057697508, 49.884741752408246], [-97.14621053312057, 49.88471473815123], [-97.14627327764586, 49.884684584853794], [-97.14629394592237, 49.884641196996704], [-97.1462649754566, 49.88458398656993], [-97.14623811515912, 49.88453052730605], [-97.14618906109074, 49.884510103397396], [-97.14612560174659, 49.88450455056044], [-97.14597259112544, 49.88453894669332], [-97.14595000887455, 49.88449645330669]]]}}, {"type": "Feature", "properties": {"id": "9ed3e6ea-eb68-5560-a59b-d5cfb8d4b1d2", "uid": "9ed3e6ea-eb68-5560-a59b-d5cfb8d4b1d2", "pf_uid": "9ed3e6ea-eb68-5560-a59b-d5cfb8d4b1d2", "source_file": "OSM (Legislative grounds, 2026-10-01)", "osm_id": "way/25657215", "born_basis": "documented", "cohort": "legislative_grounds", "name": "Drive — Legislative grounds", "material": "concrete", "floors": 0.1, "type": "walkway", "born": "1884-06-01"}, "geometry": {"type": "Polygon", "coordinates": [[[-97.14446151336705, 49.88457665771811], [-97.14456587586851, 49.88455062145766], [-97.14465482635963, 49.884525839585855], [-97.14473949969015, 49.88449287371356], [-97.14484091203238, 49.88444246862813], [-97.14492568095092, 49.88437805816299], [-97.14497341685582, 49.88431582473726], [-97.14500936130138, 49.88425076514], [-97.14504260361919, 49.884159966094806], [-97.14503812396943, 49.8840910670832], [-97.14502088023843, 49.88402219628219], [-97.14495636395672, 49.88393691515057], [-97.14487011916373, 49.883862718321254], [-97.14476474037268, 49.883818961709345], [-97.14464935550559, 49.88377959269086], [-97.14450600835032, 49.883749645557266], [-97.14437203853443, 49.88374792301672], [-97.14417536325035, 49.88376486377148], [-97.14414619722973, 49.88377136731375], [-97.14403197202287, 49.88379627281673], [-97.14400962797714, 49.88375372718327], [-97.14412380277028, 49.88372883268625], [-97.14415943674965, 49.88372113622852], [-97.14436816146558, 49.883703076983274], [-97.14451759164969, 49.88370535444273], [-97.14467644449441, 49.883738207309136], [-97.14480005962731, 49.88378023829066], [-97.14491768083627, 49.88382988167875], [-97.14501583604327, 49.88391348484943], [-97.14508731976156, 49.88400860371782], [-97.14510747603056, 49.884086532916804], [-97.1451119963808, 49.88416423390519], [-97.14507623869862, 49.884263434859996], [-97.14503758314417, 49.88433337526274], [-97.14498391904907, 49.884402741837015], [-97.14488908796761, 49.88447493137188], [-97.14477890030984, 49.88452992628644], [-97.14468677364037, 49.88456576041414], [-97.1445923241315, 49.884592178542334], [-97.14448668663294, 49.88461854228189], [-97.14446151336705, 49.88457665771811]]]}}, {"type": "Feature", "properties": {"id": "e8a81910-e2e5-5685-855e-3c136d29c656", "uid": "e8a81910-e2e5-5685-855e-3c136d29c656", "pf_uid": "e8a81910-e2e5-5685-855e-3c136d29c656", "source_file": "OSM (Legislative grounds, 2026-10-01)", "osm_id": "way/25657216", "born_basis": "documented", "cohort": "legislative_grounds", "name": "Drive — Legislative grounds", "material": "concrete", "floors": 0.1, "type": "walkway", "born": "1884-06-01"}, "geometry": {"type": "Polygon", "coordinates": [[[-97.14487118877477, 49.8838292645357], [-97.1450439368215, 49.88373563691114], [-97.14509597898784, 49.883735385947986], [-97.14517792123172, 49.88371740163581], [-97.14528018126803, 49.8836974094654], [-97.14530041873196, 49.8837403905346], [-97.14519907876829, 49.88376019836419], [-97.14510622101217, 49.88377981405202], [-97.14506726317852, 49.88377796308886], [-97.14491661122523, 49.883863335464305], [-97.14487118877477, 49.8838292645357]]]}}, {"type": "Feature", "properties": {"id": "db4936d4-a398-5098-89c0-f5d939e02cc3", "uid": "db4936d4-a398-5098-89c0-f5d939e02cc3", "pf_uid": "db4936d4-a398-5098-89c0-f5d939e02cc3", "source_file": "OSM (Legislative grounds, 2026-10-01)", "osm_id": "way/25657217", "born_basis": "documented", "cohort": "legislative_grounds", "name": "Path — Legislative grounds", "material": "stone", "floors": 0.1, "type": "walkway", "born": "1920-07-15"}, "geometry": {"type": "Polygon", "coordinates": [[[-97.14503757544757, 49.88424685938495], [-97.14521367023907, 49.884209560488785], [-97.14536676393784, 49.884177061825824], [-97.14553304202342, 49.88414507779165], [-97.14565149437891, 49.88436753583193], [-97.14572683469513, 49.884525258078526], [-97.14554786530147, 49.88456322459053], [-97.1455204616731, 49.88450964655954], [-97.14557226678922, 49.88449864002744], [-97.14551580517076, 49.884397863284605], [-97.14546885268174, 49.88429572048456], [-97.14543292317191, 49.884306640907404], [-97.1453926314461, 49.88431186222308], [-97.14544879622898, 49.88441203946304], [-97.14549596054692, 49.88451478382879], [-97.14553020158418, 49.884504253864264], [-97.14554059841582, 49.88452474613574], [-97.14548083945309, 49.8845340161712], [-97.14541700377103, 49.88441876053697], [-97.1453627685539, 49.88430213777692], [-97.14542247682809, 49.88428615909259], [-97.14548394731827, 49.884276479515435], [-97.14554759482925, 49.884391136715394], [-97.14560213321077, 49.884508359972564], [-97.1455503383269, 49.88451935344046], [-97.14556293469855, 49.884543975409464], [-97.14569696530486, 49.88451554192147], [-97.1456197056211, 49.88437426416807], [-97.1455179579766, 49.884164322208356], [-97.14537723606215, 49.88419753817418], [-97.14522412976093, 49.88423003951121], [-97.14504802455242, 49.88426734061505], [-97.14503757544757, 49.88424685938495]]]}}, {"type": "Feature", "properties": {"id": "d603a004-6172-5084-968a-8552d53e56cd", "uid": "d603a004-6172-5084-968a-8552d53e56cd", "pf_uid": "d603a004-6172-5084-968a-8552d53e56cd", "source_file": "OSM (Legislative grounds, 2026-10-01)", "osm_id": "way/25657218", "born_basis": "documented", "cohort": "legislative_grounds", "name": "Path — Legislative grounds", "material": "stone", "floors": 0.1, "type": "walkway", "born": "1920-07-15"}, "geometry": {"type": "Polygon", "coordinates": [[[-97.14552613784925, 49.88438433347046], [-97.14563003784924, 49.88436073347046], [-97.14564116215077, 49.88438106652954], [-97.14553726215077, 49.88440466652954], [-97.14552613784925, 49.88438433347046]]]}}, {"type": "Feature", "properties": {"id": "be118102-4fa2-5aed-b7e1-f70cf2b32fe4", "uid": "be118102-4fa2-5aed-b7e1-f70cf2b32fe4", "pf_uid": "be118102-4fa2-5aed-b7e1-f70cf2b32fe4", "source_file": "OSM (Legislative grounds, 2026-10-01)", "osm_id": "way/25657219", "born_basis": "documented", "cohort": "legislative_grounds", "name": "Path — Legislative grounds", "material": "stone", "floors": 0.1, "type": "walkway", "born": "1920-07-15"}, "geometry": {"type": "Polygon", "coordinates": [[[-97.14543811183307, 49.88442564330552], [-97.14534462643273, 49.884442068609616], [-97.14541265247696, 49.88457578119636], [-97.1455501806713, 49.884543358279124], [-97.14556061932872, 49.88456384172087], [-97.14539754752305, 49.88459501880364], [-97.14531477356728, 49.884432331390386], [-97.14542768816693, 49.884405156694484], [-97.14543811183307, 49.88442564330552]]]}}, {"type": "Feature", "properties": {"id": "7c60ec4e-61f6-57fa-be4c-d08c0ada61cc", "uid": "7c60ec4e-61f6-57fa-be4c-d08c0ada61cc", "pf_uid": "7c60ec4e-61f6-57fa-be4c-d08c0ada61cc", "source_file": "OSM (Legislative grounds, 2026-10-01)", "osm_id": "way/25657220", "born_basis": "documented", "cohort": "legislative_grounds", "name": "Path — Legislative grounds", "material": "stone", "floors": 0.1, "type": "walkway", "born": "1920-07-15"}, "geometry": {"type": "Polygon", "coordinates": [[[-97.14531380516682, 49.884440563276875], [-97.14520300516682, 49.88422316327687], [-97.14523479483319, 49.88421643672312], [-97.14534559483319, 49.884433836723126], [-97.14531380516682, 49.884440563276875]]]}}, {"type": "Feature", "properties": {"id": "d1b662c1-758e-5de4-8fdc-6c5c9f82245f", "uid": "d1b662c1-758e-5de4-8fdc-6c5c9f82245f", "pf_uid": "d1b662c1-758e-5de4-8fdc-6c5c9f82245f", "source_file": "OSM (Legislative grounds, 2026-10-01)", "osm_id": "way/25657221", "born_basis": "documented", "cohort": "legislative_grounds", "name": "Path — Legislative grounds", "material": "stone", "floors": 0.1, "type": "walkway", "born": "1920-07-15"}, "geometry": {"type": "Polygon", "coordinates": [[[-97.14541180784359, 49.88429976852442], [-97.14535610784358, 49.884190668524425], [-97.1453878921564, 49.884183931475576], [-97.14544359215641, 49.88429303147557], [-97.14541180784359, 49.88429976852442]]]}}, {"type": "Feature", "properties": {"id": "e349d914-ed3a-56d5-acbd-5113a2e6b6ed", "uid": "e349d914-ed3a-56d5-acbd-5113a2e6b6ed", "pf_uid": "e349d914-ed3a-56d5-acbd-5113a2e6b6ed", "source_file": "OSM (Legislative grounds, 2026-10-01)", "osm_id": "way/25657222", "born_basis": "documented", "cohort": "legislative_grounds", "name": "Path — Legislative grounds", "material": "stone", "floors": 0.1, "type": "walkway", "born": "1920-07-15"}, "geometry": {"type": "Polygon", "coordinates": [[[-97.1476939355993, 49.88567115314957], [-97.14766786537143, 49.885628536370156], [-97.14763379725393, 49.8855688190729], [-97.14766520274607, 49.8855613809271], [-97.14769913462857, 49.885620863629846], [-97.1477250644007, 49.88566324685043], [-97.1476939355993, 49.88567115314957]]]}}, {"type": "Feature", "properties": {"id": "43911ffb-dba3-526a-a769-0a6897057cad", "uid": "43911ffb-dba3-526a-a769-0a6897057cad", "pf_uid": "43911ffb-dba3-526a-a769-0a6897057cad", "source_file": "OSM (Legislative grounds, 2026-10-01)", "osm_id": "way/25681649", "born_basis": "documented", "cohort": "legislative_grounds", "name": "Path — Legislative grounds", "material": "stone", "floors": 0.1, "type": "walkway", "born": "1920-07-15"}, "geometry": {"type": "Polygon", "coordinates": [[[-97.14727690673625, 49.88434804055974], [-97.14728390860274, 49.88434644013319], [-97.14741689646426, 49.884316066045194], [-97.14766596950436, 49.8842565491018], [-97.1477288570452, 49.88424260672139], [-97.1477397429548, 49.884262993278604], [-97.14767723049563, 49.884276850898196], [-97.14742830353573, 49.8843363339548], [-97.14729509139725, 49.8843667598668], [-97.14728809326375, 49.88436835944026], [-97.14727690673625, 49.88434804055974]]]}}, {"type": "Feature", "properties": {"id": "ef216fa0-ff5c-53e1-97e6-014d74fb49ed", "uid": "ef216fa0-ff5c-53e1-97e6-014d74fb49ed", "pf_uid": "ef216fa0-ff5c-53e1-97e6-014d74fb49ed", "source_file": "OSM (Legislative grounds, 2026-10-01)", "osm_id": "way/51653553", "born_basis": "documented", "cohort": "legislative_grounds", "name": "Drive — Legislative grounds", "material": "concrete", "floors": 0.1, "type": "walkway", "born": "1920-07-15"}, "geometry": {"type": "Polygon", "coordinates": [[[-97.14667791207206, 49.88381012601215], [-97.14685364720988, 49.88370540208769], [-97.14698643046268, 49.88358118017678], [-97.14707867135824, 49.883449128759], [-97.14711785757319, 49.88330236608688], [-97.1471865424268, 49.88331003391312], [-97.14714532864177, 49.883462271241], [-97.14704716953733, 49.88360321982322], [-97.14690635279011, 49.883734797912304], [-97.14672528792794, 49.88384307398785], [-97.14667791207206, 49.88381012601215]]]}}, {"type": "Feature", "properties": {"id": "aef9bb47-2d42-58ae-93b5-70234875c60a", "uid": "aef9bb47-2d42-58ae-93b5-70234875c60a", "pf_uid": "aef9bb47-2d42-58ae-93b5-70234875c60a", "source_file": "OSM (Legislative grounds, 2026-10-01)", "osm_id": "way/98900965", "born_basis": "documented", "cohort": "legislative_grounds", "name": "Path — Legislative grounds", "material": "stone", "floors": 0.1, "type": "walkway", "born": "1920-07-15"}, "geometry": {"type": "Polygon", "coordinates": [[[-97.14759916490989, 49.8847977691148], [-97.14726076490989, 49.8848874691148], [-97.1472480350901, 49.8848675308852], [-97.1475864350901, 49.8847778308852], [-97.14759916490989, 49.8847977691148]]]}}, {"type": "Feature", "properties": {"id": "ba05c552-2ac1-52c9-8df3-ccb9b819ac0f", "uid": "ba05c552-2ac1-52c9-8df3-ccb9b819ac0f", "pf_uid": "ba05c552-2ac1-52c9-8df3-ccb9b819ac0f", "source_file": "OSM (Legislative grounds, 2026-10-01)", "osm_id": "way/141025565", "born_basis": "documented", "cohort": "legislative_grounds", "name": "Path — Legislative grounds", "material": "stone", "floors": 0.1, "type": "walkway", "born": "1920-07-15"}, "geometry": {"type": "Polygon", "coordinates": [[[-97.1482543560449, 49.882809515641604], [-97.148218310156, 49.88281597511245], [-97.14793089741988, 49.882748180381064], [-97.14781129172101, 49.88274564959905], [-97.1469570501399, 49.882942569254396], [-97.14640688899888, 49.88306520517389], [-97.14620813193265, 49.88310805056722], [-97.14605784655295, 49.88314492386031], [-97.14586135296423, 49.88318934571233], [-97.1453050402956, 49.883320971482796], [-97.14512909623186, 49.88335870272102], [-97.14421505714456, 49.88330936910219], [-97.14389911799026, 49.883308379604586], [-97.14389928200976, 49.88328682039541], [-97.14421654285543, 49.883287830897814], [-97.14512510376814, 49.88333729727898], [-97.14529395970439, 49.8833006285172], [-97.14585004703576, 49.88316905428767], [-97.14604635344706, 49.883124676139694], [-97.14619686806735, 49.88308774943278], [-97.14639611100111, 49.883044794826105], [-97.1469459498601, 49.882922230745606], [-97.14780610827898, 49.88272435040094], [-97.14793730258012, 49.88272701961893], [-97.148219289844, 49.88279442488755], [-97.14824464395511, 49.8827888843584], [-97.1482543560449, 49.882809515641604]]]}}, {"type": "Feature", "properties": {"id": "29a80d1f-213d-5318-aca6-bc2774a41bb4", "uid": "29a80d1f-213d-5318-aca6-bc2774a41bb4", "pf_uid": "29a80d1f-213d-5318-aca6-bc2774a41bb4", "source_file": "OSM (Legislative grounds, 2026-10-01)", "osm_id": "way/141025586", "born_basis": "documented", "cohort": "legislative_grounds", "name": "Path — Legislative grounds", "material": "stone", "floors": 0.1, "type": "walkway", "born": "1920-07-15"}, "geometry": {"type": "Polygon", "coordinates": [[[-97.1460363156422, 49.883138372762616], [-97.14599830454688, 49.88306865234597], [-97.14596589351515, 49.88300843191501], [-97.14599750648483, 49.883001368085], [-97.14602989545313, 49.88306154765404], [-97.1460678843578, 49.883131227237385], [-97.1460363156422, 49.883138372762616]]]}}, {"type": "Feature", "properties": {"id": "5dc33474-ad49-5f62-b82c-b7e5a1bb72cf", "uid": "5dc33474-ad49-5f62-b82c-b7e5a1bb72cf", "pf_uid": "5dc33474-ad49-5f62-b82c-b7e5a1bb72cf", "source_file": "OSM (Legislative grounds, 2026-10-01)", "osm_id": "way/141025588", "born_basis": "documented", "cohort": "legislative_grounds", "name": "Path — Legislative grounds", "material": "stone", "floors": 0.1, "type": "walkway", "born": "1920-07-15"}, "geometry": {"type": "Polygon", "coordinates": [[[-97.1461866485424, 49.883101347220155], [-97.14615255044751, 49.88303625085506], [-97.14612005235465, 49.882974354489534], [-97.14615174764536, 49.88296744551046], [-97.14618424955248, 49.88302934914494], [-97.1462183514576, 49.88309445277985], [-97.1461866485424, 49.883101347220155]]]}}, {"type": "Feature", "properties": {"id": "3edaf9c1-8f3f-5eab-9c34-96750044eae5", "uid": "3edaf9c1-8f3f-5eab-9c34-96750044eae5", "pf_uid": "3edaf9c1-8f3f-5eab-9c34-96750044eae5", "source_file": "OSM (Legislative grounds, 2026-10-01)", "osm_id": "way/171424638", "born_basis": "documented", "cohort": "legislative_grounds", "name": "Path — Legislative grounds", "material": "stone", "floors": 0.1, "type": "walkway", "born": "1920-07-15"}, "geometry": {"type": "Polygon", "coordinates": [[[-97.14787648580683, 49.884220123499695], [-97.14794132763595, 49.8842602747037], [-97.14928382470774, 49.884867026546644], [-97.14934196639526, 49.884904036898405], [-97.14931843360473, 49.8849193631016], [-97.14926237529227, 49.88488357345335], [-97.14792007236406, 49.8842769252963], [-97.14785331419317, 49.8842356765003], [-97.14787648580683, 49.884220123499695]]]}}, {"type": "Feature", "properties": {"id": "a6f0cbc0-5685-52af-b252-a42aac52603e", "uid": "a6f0cbc0-5685-52af-b252-a42aac52603e", "pf_uid": "a6f0cbc0-5685-52af-b252-a42aac52603e", "source_file": "OSM (Legislative grounds, 2026-10-01)", "osm_id": "way/243010438", "born_basis": "documented", "cohort": "legislative_grounds", "name": "Path — Legislative grounds", "material": "stone", "floors": 0.1, "type": "walkway", "born": "1920-07-15"}, "geometry": {"type": "Polygon", "coordinates": [[[-97.14428247185653, 49.883140079417885], [-97.1440201974001, 49.88313876056006], [-97.1438376264893, 49.883153777364804], [-97.14382072002772, 49.8831567141486], [-97.14381207997229, 49.8831358858514], [-97.1438311735107, 49.883132622635195], [-97.14401820259991, 49.88311723943994], [-97.14428272814347, 49.883118520582116], [-97.14428247185653, 49.883140079417885]]]}}, {"type": "Feature", "properties": {"id": "bf0b980d-78f3-5ed9-890f-bbd21acfbe28", "uid": "bf0b980d-78f3-5ed9-890f-bbd21acfbe28", "pf_uid": "bf0b980d-78f3-5ed9-890f-bbd21acfbe28", "source_file": "OSM (Legislative grounds, 2026-10-01)", "osm_id": "way/243010442", "born_basis": "documented", "cohort": "legislative_grounds", "name": "Path — Legislative grounds", "material": "stone", "floors": 0.1, "type": "walkway", "born": "1920-07-15"}, "geometry": {"type": "Polygon", "coordinates": [[[-97.14822019672141, 49.88276346849979], [-97.14818584770299, 49.88262954561724], [-97.1481460063961, 49.88258123411549], [-97.1481755936039, 49.882571165884514], [-97.14821755229701, 49.882622654382764], [-97.14825320327859, 49.88275993150022], [-97.14822019672141, 49.88276346849979]]]}}, {"type": "Feature", "properties": {"id": "6ea81bdc-8b66-52c8-9278-36a4f02875d4", "uid": "6ea81bdc-8b66-52c8-9278-36a4f02875d4", "pf_uid": "6ea81bdc-8b66-52c8-9278-36a4f02875d4", "source_file": "OSM (Legislative grounds, 2026-10-01)", "osm_id": "way/291278424", "born_basis": "documented", "cohort": "legislative_grounds", "name": "Drive — Legislative grounds", "material": "concrete", "floors": 0.1, "type": "walkway", "born": "1920-07-15"}, "geometry": {"type": "Polygon", "coordinates": [[[-97.14671315314823, 49.8838477881307], [-97.14666262801734, 49.88385922507235], [-97.14654258785896, 49.88388786391871], [-97.14642451475943, 49.883915957501515], [-97.1463707558416, 49.88392884766989], [-97.1463464441584, 49.88388675233011], [-97.14640028524057, 49.88387384249849], [-97.14651841214103, 49.88384573608129], [-97.14663897198267, 49.88381697492765], [-97.14669004685177, 49.8838054118693], [-97.14671315314823, 49.8838477881307]]]}}, {"type": "Feature", "properties": {"id": "965570f8-6366-50e3-88cf-b930188a9ad1", "uid": "965570f8-6366-50e3-88cf-b930188a9ad1", "pf_uid": "965570f8-6366-50e3-88cf-b930188a9ad1", "source_file": "OSM (Legislative grounds, 2026-10-01)", "osm_id": "way/291278425", "born_basis": "documented", "cohort": "legislative_grounds", "name": "Drive — Legislative grounds", "material": "concrete", "floors": 0.1, "type": "walkway", "born": "1884-06-01"}, "geometry": {"type": "Polygon", "coordinates": [[[-97.14637046750589, 49.883928915875686], [-97.14573446750589, 49.884077315875686], [-97.14571073249411, 49.88403508412432], [-97.14634673249411, 49.88388668412432], [-97.14637046750589, 49.883928915875686]]]}}, {"type": "Feature", "properties": {"id": "8ab5dcdc-15e9-5e82-9969-e048b938b637", "uid": "8ab5dcdc-15e9-5e82-9969-e048b938b637", "pf_uid": "8ab5dcdc-15e9-5e82-9969-e048b938b637", "source_file": "OSM (Legislative grounds, 2026-10-01)", "osm_id": "way/309368545", "born_basis": "documented", "cohort": "legislative_grounds", "name": "Path — Legislative grounds", "material": "stone", "floors": 0.1, "type": "walkway", "born": "1920-07-15"}, "geometry": {"type": "Polygon", "coordinates": [[[-97.14515160068848, 49.8838961509016], [-97.14514790938027, 49.883888369166904], [-97.14510756888103, 49.88380439122778], [-97.14508522126377, 49.88376099469782], [-97.14511697873624, 49.88375420530218], [-97.14513943111896, 49.88379780877222], [-97.14517989061973, 49.8838820308331], [-97.14518359931151, 49.8838898490984], [-97.14515160068848, 49.8838961509016]]]}}, {"type": "Feature", "properties": {"id": "892de209-a08b-5c7f-a31f-38e9c4ee19a3", "uid": "892de209-a08b-5c7f-a31f-38e9c4ee19a3", "pf_uid": "892de209-a08b-5c7f-a31f-38e9c4ee19a3", "source_file": "OSM (Legislative grounds, 2026-10-01)", "osm_id": "way/309368547", "born_basis": "documented", "cohort": "legislative_grounds", "name": "Path — Legislative grounds", "material": "stone", "floors": 0.1, "type": "walkway", "born": "1920-07-15"}, "geometry": {"type": "Polygon", "coordinates": [[[-97.14564027679644, 49.884117094340084], [-97.1456740565048, 49.88411242607744], [-97.1457047014964, 49.88416710107413], [-97.14577088832209, 49.88414957800994], [-97.14578151167791, 49.88417002199006], [-97.14569009850361, 49.88418649892587], [-97.1456599434952, 49.884131973922564], [-97.14565192320354, 49.88413730565992], [-97.14564027679644, 49.884117094340084]]]}}, {"type": "Feature", "properties": {"id": "892931c3-6ab6-54f2-adee-0d7b9954699f", "uid": "892931c3-6ab6-54f2-adee-0d7b9954699f", "pf_uid": "892931c3-6ab6-54f2-adee-0d7b9954699f", "source_file": "OSM (Legislative grounds, 2026-10-01)", "osm_id": "way/516511183", "born_basis": "documented", "cohort": "legislative_grounds", "name": "Path — Legislative grounds", "material": "stone", "floors": 0.1, "type": "walkway", "born": "1920-07-15"}, "geometry": {"type": "Polygon", "coordinates": [[[-97.14814778020785, 49.88258296942059], [-97.14812099613052, 49.88256158211527], [-97.148077412083, 49.88252699479442], [-97.148103387917, 49.882513405205586], [-97.14814700386948, 49.88254801788473], [-97.14817381979215, 49.882569430579416], [-97.14814778020785, 49.88258296942059]]]}}, {"type": "Feature", "properties": {"id": "4b3a038e-9fd3-59d2-99be-c358a2db6c57", "uid": "4b3a038e-9fd3-59d2-99be-c358a2db6c57", "pf_uid": "4b3a038e-9fd3-59d2-99be-c358a2db6c57", "source_file": "OSM (Legislative grounds, 2026-10-01)", "osm_id": "way/839156263", "born_basis": "documented", "cohort": "legislative_grounds", "name": "Path — Legislative grounds", "material": "stone", "floors": 0.1, "type": "walkway", "born": "1920-07-15"}, "geometry": {"type": "Polygon", "coordinates": [[[-97.14566444491689, 49.88620990112769], [-97.1464294985218, 49.88561806189306], [-97.14650947649487, 49.88554413463617], [-97.14653692350514, 49.88555646536383], [-97.14645610147821, 49.88563113810694], [-97.14569015508312, 49.88622369887231], [-97.14566444491689, 49.88620990112769]]]}}, {"type": "Feature", "properties": {"id": "0ecdf95a-5bf4-58db-9cd3-fd27c95af8ac", "uid": "0ecdf95a-5bf4-58db-9cd3-fd27c95af8ac", "pf_uid": "0ecdf95a-5bf4-58db-9cd3-fd27c95af8ac", "source_file": "OSM (Legislative grounds, 2026-10-01)", "osm_id": "way/839156266", "born_basis": "documented", "cohort": "legislative_grounds", "name": "Path — Legislative grounds", "material": "stone", "floors": 0.1, "type": "walkway", "born": "1920-07-15"}, "geometry": {"type": "Polygon", "coordinates": [[[-97.1473167182183, 49.885747671489625], [-97.14730051574405, 49.885711265924556], [-97.14727161327444, 49.885646060358624], [-97.14730378672557, 49.88564013964138], [-97.14733268425594, 49.88570533407544], [-97.1473488817817, 49.88574172851037], [-97.1473167182183, 49.885747671489625]]]}}, {"type": "Feature", "properties": {"id": "e24f1436-2250-573f-ba76-9a2258ed1672", "uid": "e24f1436-2250-573f-ba76-9a2258ed1672", "pf_uid": "e24f1436-2250-573f-ba76-9a2258ed1672", "source_file": "OSM (Legislative grounds, 2026-10-01)", "osm_id": "way/839156267", "born_basis": "documented", "cohort": "legislative_grounds", "name": "Path — Legislative grounds", "material": "stone", "floors": 0.1, "type": "walkway", "born": "1920-07-15"}, "geometry": {"type": "Polygon", "coordinates": [[[-97.14706618608825, 49.88520625185601], [-97.14708223487483, 49.88523413773846], [-97.14730348252887, 49.8856395238845], [-97.14727191747114, 49.885646676115506], [-97.14705076512516, 49.88524146226154], [-97.14703481391176, 49.88521374814399], [-97.14706618608825, 49.88520625185601]]]}}, {"type": "Feature", "properties": {"id": "04cc50bf-6566-5fee-b140-4f3cdc61c348", "uid": "04cc50bf-6566-5fee-b140-4f3cdc61c348", "pf_uid": "04cc50bf-6566-5fee-b140-4f3cdc61c348", "source_file": "OSM (Legislative grounds, 2026-10-01)", "osm_id": "way/1000310235", "born_basis": "documented", "cohort": "legislative_grounds", "name": "Path — Legislative grounds", "material": "stone", "floors": 0.1, "type": "walkway", "born": "1920-07-15"}, "geometry": {"type": "Polygon", "coordinates": [[[-97.14809460927077, 49.882530632961895], [-97.14803490927078, 49.88254063296189], [-97.14802649072924, 49.882519767038104], [-97.14808619072923, 49.88250976703811], [-97.14809460927077, 49.882530632961895]]]}}, {"type": "Feature", "properties": {"id": "53e3e98e-7845-5ed7-af48-c0d571c9e698", "uid": "53e3e98e-7845-5ed7-af48-c0d571c9e698", "pf_uid": "53e3e98e-7845-5ed7-af48-c0d571c9e698", "source_file": "OSM (Legislative grounds, 2026-10-01)", "osm_id": "way/1286585754", "born_basis": "documented", "cohort": "legislative_grounds", "name": "Path — Legislative grounds", "material": "stone", "floors": 0.1, "type": "walkway", "born": "1920-07-15"}, "geometry": {"type": "Polygon", "coordinates": [[[-97.14931459861845, 49.88522354138283], [-97.14929630257747, 49.88518964870826], [-97.1492843412513, 49.88515801223827], [-97.14919107232927, 49.8851790782771], [-97.14922207403399, 49.885236292510776], [-97.14926808629455, 49.88522262252033], [-97.14932487687413, 49.88520982464121], [-97.14933592312586, 49.885230175358785], [-97.14927911370545, 49.88524297747966], [-97.149207525966, 49.88525570748923], [-97.14916092767072, 49.885169721722896], [-97.1492988587487, 49.88513858776172], [-97.14932789742254, 49.885182551291734], [-97.14934620138155, 49.885216458617165], [-97.14931459861845, 49.88522354138283]]]}}, {"type": "Feature", "properties": {"id": "f45c3c39-14bc-5aba-9df4-75bf291a85f5", "uid": "f45c3c39-14bc-5aba-9df4-75bf291a85f5", "pf_uid": "f45c3c39-14bc-5aba-9df4-75bf291a85f5", "source_file": "OSM (Legislative grounds, 2026-10-01)", "osm_id": "way/1382737850", "born_basis": "documented", "cohort": "legislative_grounds", "name": "Path — Legislative grounds", "material": "stone", "floors": 0.1, "type": "walkway", "born": "1920-07-15"}, "geometry": {"type": "Polygon", "coordinates": [[[-97.14768537943462, 49.884781017854465], [-97.14770957943462, 49.88477511785447], [-97.14772142056539, 49.88479528214554], [-97.14769722056539, 49.88480118214554], [-97.14768537943462, 49.884781017854465]]]}}, {"type": "Feature", "properties": {"id": "a7dce719-8588-52db-ac6f-9f04b072aa9f", "uid": "a7dce719-8588-52db-ac6f-9f04b072aa9f", "pf_uid": "a7dce719-8588-52db-ac6f-9f04b072aa9f", "source_file": "OSM (Legislative grounds, 2026-10-01)", "osm_id": "way/1382737851", "born_basis": "documented", "cohort": "legislative_grounds", "name": "Path — Legislative grounds", "material": "stone", "floors": 0.1, "type": "walkway", "born": "1920-07-15"}, "geometry": {"type": "Polygon", "coordinates": [[[-97.14774292425884, 49.884766636561636], [-97.1478351331349, 49.88474563454179], [-97.14791974201275, 49.88472643252515], [-97.14793085798725, 49.884746767474844], [-97.1478462668651, 49.884765965458215], [-97.14775407574118, 49.88478696343836], [-97.14774292425884, 49.884766636561636]]]}}, {"type": "Feature", "properties": {"id": "eb81d599-0880-55df-8496-2ecc318cf08f", "uid": "eb81d599-0880-55df-8496-2ecc318cf08f", "pf_uid": "eb81d599-0880-55df-8496-2ecc318cf08f", "source_file": "OSM (Legislative grounds, 2026-10-01)", "osm_id": "way/1383857465", "born_basis": "documented", "cohort": "legislative_grounds", "name": "Path — Legislative grounds", "material": "stone", "floors": 0.1, "type": "walkway", "born": "1920-07-15"}, "geometry": {"type": "Polygon", "coordinates": [[[-97.14737691251318, 49.88509746701815], [-97.14733314630651, 49.88501704294868], [-97.14730958244823, 49.88497011836922], [-97.14734141755176, 49.884963481630784], [-97.1473648536935, 49.88501015705132], [-97.14740848748681, 49.885090332981854], [-97.14737691251318, 49.88509746701815]]]}}, {"type": "Feature", "properties": {"id": "8e28dffb-f928-56b1-9118-7651b584cd48", "uid": "8e28dffb-f928-56b1-9118-7651b584cd48", "pf_uid": "8e28dffb-f928-56b1-9118-7651b584cd48", "source_file": "OSM (Legislative grounds, 2026-10-01)", "osm_id": "way/1383857466", "born_basis": "documented", "cohort": "legislative_grounds", "name": "Path — Legislative grounds", "material": "stone", "floors": 0.1, "type": "walkway", "born": "1920-07-15"}, "geometry": {"type": "Polygon", "coordinates": [[[-97.14701513785066, 49.88517891323966], [-97.14697010641765, 49.88509735579763], [-97.14694547548886, 49.88505109824208], [-97.14697712451114, 49.88504410175792], [-97.14700169358235, 49.88509024420237], [-97.14704666214935, 49.88517168676034], [-97.14701513785066, 49.88517891323966]]]}}, {"type": "Feature", "properties": {"id": "b40bc2d1-5b3c-5f5c-8c67-339f028116b9", "uid": "b40bc2d1-5b3c-5f5c-8c67-339f028116b9", "pf_uid": "b40bc2d1-5b3c-5f5c-8c67-339f028116b9", "source_file": "OSM (Legislative grounds, 2026-10-01)", "osm_id": "way/1383857467", "born_basis": "documented", "cohort": "legislative_grounds", "name": "Path — Legislative grounds", "material": "stone", "floors": 0.1, "type": "walkway", "born": "1920-07-15"}, "geometry": {"type": "Polygon", "coordinates": [[[-97.14720116616893, 49.88513688068962], [-97.14715806585738, 49.88505548010116], [-97.14713366554588, 49.88500937951268], [-97.14716533445412, 49.885002420487325], [-97.14718973414261, 49.885048519898845], [-97.14723283383107, 49.88512991931038], [-97.14720116616893, 49.88513688068962]]]}}, {"type": "Feature", "properties": {"id": "19bf441f-7842-5c47-8233-de1041f1296b", "uid": "19bf441f-7842-5c47-8233-de1041f1296b", "pf_uid": "19bf441f-7842-5c47-8233-de1041f1296b", "source_file": "OSM (Legislative grounds, 2026-10-01)", "osm_id": "way/1387034456", "born_basis": "documented", "cohort": "legislative_grounds", "name": "Path — Legislative grounds", "material": "stone", "floors": 0.1, "type": "walkway", "born": "1920-07-15"}, "geometry": {"type": "Polygon", "coordinates": [[[-97.14763373388539, 49.885568706050044], [-97.14740957401459, 49.885161801526515], [-97.1473954283077, 49.885130294066734], [-97.1474275716923, 49.88512430593327], [-97.1474414259854, 49.88515519847349], [-97.14766526611461, 49.88556149394996], [-97.14763373388539, 49.885568706050044]]]}}, {"type": "Feature", "properties": {"id": "1c8314a0-e63f-5f9a-92d9-3a1d79c42623", "uid": "1c8314a0-e63f-5f9a-92d9-3a1d79c42623", "pf_uid": "1c8314a0-e63f-5f9a-92d9-3a1d79c42623", "source_file": "OSM (Legislative grounds, 2026-10-01)", "osm_id": "way/1387034457", "born_basis": "documented", "cohort": "legislative_grounds", "name": "Path — Legislative grounds", "material": "stone", "floors": 0.1, "type": "walkway", "born": "1920-07-15"}, "geometry": {"type": "Polygon", "coordinates": [[[-97.14742675107911, 49.88516924955083], [-97.1472404253693, 49.88517791903209], [-97.1470755709234, 49.885246857690525], [-97.14705742907658, 49.88522874230947], [-97.1472297746307, 49.885157480967905], [-97.14742424892088, 49.88514775044918], [-97.14742675107911, 49.88516924955083]]]}}, {"type": "Feature", "properties": {"id": "331f49fd-5bb7-5ad5-b7ee-6dbc5a8e17e7", "uid": "331f49fd-5bb7-5ad5-b7ee-6dbc5a8e17e7", "pf_uid": "331f49fd-5bb7-5ad5-b7ee-6dbc5a8e17e7", "source_file": "OSM (Legislative grounds, 2026-10-01)", "osm_id": "way/1387091990", "born_basis": "documented", "cohort": "legislative_grounds", "name": "Path — Legislative grounds", "material": "stone", "floors": 0.1, "type": "walkway", "born": "1920-07-15"}, "geometry": {"type": "Polygon", "coordinates": [[[-97.14605135801311, 49.88532829863423], [-97.14604465801311, 49.88537469863423], [-97.14601134198689, 49.885372701365775], [-97.14601804198689, 49.88532630136577], [-97.14605135801311, 49.88532829863423]]]}}, {"type": "Feature", "properties": {"id": "e3479dcb-690c-565f-8d96-26f47bddee30", "uid": "e3479dcb-690c-565f-8d96-26f47bddee30", "pf_uid": "e3479dcb-690c-565f-8d96-26f47bddee30", "source_file": "OSM (Legislative grounds, 2026-10-01)", "osm_id": "way/1387091991", "born_basis": "documented", "cohort": "legislative_grounds", "name": "Path — Legislative grounds", "material": "stone", "floors": 0.1, "type": "walkway", "born": "1920-07-15"}, "geometry": {"type": "Polygon", "coordinates": [[[-97.14614734611153, 49.88542562693022], [-97.14607704611154, 49.88542112693022], [-97.14608035388846, 49.88539967306978], [-97.14615065388845, 49.88540417306978], [-97.14614734611153, 49.88542562693022]]]}}, {"type": "Feature", "properties": {"id": "60c8a901-26d4-51f3-9043-de0828646981", "uid": "60c8a901-26d4-51f3-9043-de0828646981", "pf_uid": "60c8a901-26d4-51f3-9043-de0828646981", "source_file": "OSM (Legislative grounds, 2026-10-01)", "osm_id": "way/1387091992", "born_basis": "documented", "cohort": "legislative_grounds", "name": "Path — Legislative grounds", "material": "stone", "floors": 0.1, "type": "walkway", "born": "1920-07-15"}, "geometry": {"type": "Polygon", "coordinates": [[[-97.14590088080416, 49.885387974806854], [-97.14597158080416, 49.88539257480685], [-97.14596821919584, 49.88541402519315], [-97.14589751919584, 49.88540942519315], [-97.14590088080416, 49.885387974806854]]]}}, {"type": "Feature", "properties": {"id": "84c14d34-ba24-5ee0-85b8-03c828720498", "uid": "84c14d34-ba24-5ee0-85b8-03c828720498", "pf_uid": "84c14d34-ba24-5ee0-85b8-03c828720498", "source_file": "OSM (Legislative grounds, 2026-10-01)", "osm_id": "way/1387091993", "born_basis": "documented", "cohort": "legislative_grounds", "name": "Path — Legislative grounds", "material": "stone", "floors": 0.1, "type": "walkway", "born": "1920-07-15"}, "geometry": {"type": "Polygon", "coordinates": [[[-97.14599782718581, 49.88548730980164], [-97.1460036271858, 49.885442209801646], [-97.1460369728142, 49.88544399019836], [-97.1460311728142, 49.885489090198355], [-97.14599782718581, 49.88548730980164]]]}}, {"type": "Feature", "properties": {"id": "404831f5-685a-53b6-ad96-c873b9b510fe", "uid": "404831f5-685a-53b6-ad96-c873b9b510fe", "pf_uid": "404831f5-685a-53b6-ad96-c873b9b510fe", "source_file": "OSM (Legislative grounds, 2026-10-01)", "osm_id": "way/1388658969", "born_basis": "documented", "cohort": "legislative_grounds", "name": "Path — Legislative grounds", "material": "stone", "floors": 0.1, "type": "walkway", "born": "1920-07-15"}, "geometry": {"type": "Polygon", "coordinates": [[[-97.14828037198194, 49.88393270352468], [-97.14827749261454, 49.88395070460748], [-97.14826430149672, 49.88396986733743], [-97.14824230908607, 49.88398523617215], [-97.14821395559966, 49.8839953247293], [-97.14818205597446, 49.883999062651654], [-97.14814983406164, 49.88399611809114], [-97.14811991809064, 49.88398614781186], [-97.14809680960197, 49.883970375408836], [-97.14808299448305, 49.88395047238601], [-97.14808021814028, 49.88392886916131], [-97.1480886752097, 49.88390782363733], [-97.14810750462303, 49.88388981224103], [-97.14813450122621, 49.88387680514843], [-97.14816672683808, 49.88387029903068], [-97.1482003041584, 49.88387098729768], [-97.14823072592381, 49.88387847227824], [-97.14825576166956, 49.88389175251984], [-97.14827293377829, 49.88390948277746], [-97.14827973354599, 49.88392696181973], [-97.14822546645402, 49.883935238180264], [-97.14822146622171, 49.88392331722253], [-97.14821383833043, 49.883915447480156], [-97.1482026740762, 49.883909527721755], [-97.1481892958416, 49.883906212702314], [-97.14817427316193, 49.88390590096932], [-97.14815989877378, 49.883908794851564], [-97.14814789537698, 49.88391458775897], [-97.1481395247903, 49.883922576362664], [-97.14813578185971, 49.883931930838685], [-97.14813700551696, 49.88394152761399], [-97.14814319039805, 49.88395042459116], [-97.14815348190935, 49.883957452188135], [-97.14816676593837, 49.88396188190885], [-97.14818094402555, 49.883963137348346], [-97.14819524440034, 49.883961475270695], [-97.14820789091394, 49.88395696382784], [-97.14821769850327, 49.88395013266258], [-97.14822350738547, 49.883941695392515], [-97.14822482801807, 49.88392949647532], [-97.14828037198194, 49.88393270352468]]]}}, {"type": "Feature", "properties": {"id": "a27d933c-93c1-5b67-a1e8-ef73c688ad46", "uid": "a27d933c-93c1-5b67-a1e8-ef73c688ad46", "pf_uid": "a27d933c-93c1-5b67-a1e8-ef73c688ad46", "source_file": "OSM (Legislative grounds, 2026-10-01)", "osm_id": "way/1388878020", "born_basis": "documented", "cohort": "legislative_grounds", "name": "Path — Legislative grounds", "material": "stone", "floors": 0.1, "type": "walkway", "born": "1920-07-15"}, "geometry": {"type": "Polygon", "coordinates": [[[-97.14773442408543, 49.88481758976175], [-97.14772848542471, 49.88481712652389], [-97.14772855110432, 49.884822147718126], [-97.14771305865439, 49.8848357049009], [-97.14768985676227, 49.88484640867035], [-97.14761222347155, 49.884858024496516], [-97.1475933514825, 49.88484000948934], [-97.14758852037157, 49.88483195674827], [-97.14757108358069, 49.88480159372551], [-97.14756666600643, 49.884794063365355], [-97.14756258732274, 49.8847725986239], [-97.14763517157378, 49.884747348803934], [-97.14766573133424, 49.884745913955726], [-97.14769214293399, 49.8847505582676], [-97.14769548634304, 49.884754609143], [-97.14771698668235, 49.884752471459066], [-97.14774156877286, 49.884778824792], [-97.14775063587682, 49.884794539897975], [-97.14769836412317, 49.88480706010203], [-97.14768943122715, 49.884791575208006], [-97.14769441331765, 49.88478532854093], [-97.14768771365696, 49.884790190857004], [-97.14766765706601, 49.8847828417324], [-97.14766046866576, 49.88478168604428], [-97.14764842842622, 49.884782251196064], [-97.14761381267726, 49.88478680137611], [-97.14761893399357, 49.88478153663464], [-97.14762331641933, 49.88478900627449], [-97.14764067962842, 49.88481924325173], [-97.1476454485175, 49.88482719051066], [-97.14763617652844, 49.88482557550348], [-97.14766454323774, 49.88481439132965], [-97.14767394134562, 49.884810095099105], [-97.14767884889567, 49.88480585228187], [-97.14768791457529, 49.884792473476104], [-97.14771457591456, 49.88478401023825], [-97.14773442408543, 49.88481758976175]]]}}, {"type": "Feature", "properties": {"id": "95b534bd-8ac4-51e3-9c46-294d8de51a79", "uid": "95b534bd-8ac4-51e3-9c46-294d8de51a79", "pf_uid": "95b534bd-8ac4-51e3-9c46-294d8de51a79", "source_file": "OSM (Legislative grounds, 2026-10-01)", "osm_id": "way/1388881561", "born_basis": "documented", "cohort": "legislative_grounds", "name": "Path — Legislative grounds", "material": "stone", "floors": 0.1, "type": "walkway", "born": "1920-07-15"}, "geometry": {"type": "Polygon", "coordinates": [[[-97.14710235525044, 49.88495016000003], [-97.14708616478559, 49.88491937807589], [-97.14708037437038, 49.884908496140845], [-97.14711202562961, 49.88490150385916], [-97.14711783521442, 49.88491242192411], [-97.14713404474955, 49.88494323999997], [-97.14710235525044, 49.88495016000003]]]}}, {"type": "Feature", "properties": {"id": "e721883e-48cc-5378-92a7-23f1e556e918", "uid": "e721883e-48cc-5378-92a7-23f1e556e918", "pf_uid": "e721883e-48cc-5378-92a7-23f1e556e918", "source_file": "OSM (Legislative grounds, 2026-10-01)", "osm_id": "way/1537308267", "born_basis": "documented", "cohort": "legislative_grounds", "name": "Path — Legislative grounds", "material": "stone", "floors": 0.1, "type": "walkway", "born": "1920-07-15"}, "geometry": {"type": "Polygon", "coordinates": [[[-97.14595971766997, 49.884664776587606], [-97.14588641766996, 49.88468127658761], [-97.14587538233003, 49.88466092341239], [-97.14594868233004, 49.88464442341239], [-97.14595971766997, 49.884664776587606]]]}}, {"type": "Feature", "properties": {"id": "a95a9703-7de4-558d-bc9b-48e6a90cb18f", "uid": "a95a9703-7de4-558d-bc9b-48e6a90cb18f", "pf_uid": "a95a9703-7de4-558d-bc9b-48e6a90cb18f", "source_file": "OSM (Legislative grounds, 2026-10-01)", "osm_id": "way/1537308268", "born_basis": "documented", "cohort": "legislative_grounds", "name": "Path — Legislative grounds", "material": "stone", "floors": 0.1, "type": "walkway", "born": "1920-07-15"}, "geometry": {"type": "Polygon", "coordinates": [[[-97.1477288694281, 49.884242603979715], [-97.1477998694281, 49.884226903979716], [-97.1478107305719, 49.884247296020284], [-97.1477397305719, 49.88426299602028], [-97.1477288694281, 49.884242603979715]]]}}, {"type": "Feature", "properties": {"id": "7a478d39-b091-5ef9-84e2-6d9c627e0db5", "uid": "7a478d39-b091-5ef9-84e2-6d9c627e0db5", "pf_uid": "7a478d39-b091-5ef9-84e2-6d9c627e0db5", "source_file": "OSM (Legislative grounds, 2026-10-01)", "osm_id": "way/1537308269", "born_basis": "documented", "cohort": "legislative_grounds", "name": "Path — Legislative grounds", "material": "stone", "floors": 0.1, "type": "walkway", "born": "1920-07-15"}, "geometry": {"type": "Polygon", "coordinates": [[[-97.14654494421248, 49.88392492474101], [-97.14651474544235, 49.88387042695968], [-97.14627264667295, 49.88343412917819], [-97.14630415332705, 49.883426870821815], [-97.14654625455765, 49.88386317304032], [-97.14657645578751, 49.883917675258985], [-97.14654494421248, 49.88392492474101]]]}}, {"type": "Feature", "properties": {"id": "d59100f1-c934-5466-9a3a-bc63333bc418", "uid": "d59100f1-c934-5466-9a3a-bc63333bc418", "pf_uid": "d59100f1-c934-5466-9a3a-bc63333bc418", "source_file": "OSM (Legislative grounds, 2026-10-01)", "osm_id": "way/1537308270", "born_basis": "documented", "cohort": "legislative_grounds", "name": "Drive — Legislative grounds", "material": "concrete", "floors": 0.1, "type": "walkway", "born": "1920-07-15"}, "geometry": {"type": "Polygon", "coordinates": [[[-97.14796398142153, 49.88487657967093], [-97.1478923810058, 49.88474397890098], [-97.14770608131606, 49.88439887947559], [-97.14763867844734, 49.884274074160565], [-97.14757371264966, 49.88415353725196], [-97.14731778073066, 49.883688578391315], [-97.14711923488345, 49.88331349291359], [-97.14695646691412, 49.88301005274882], [-97.14691857365919, 49.88293976527971], [-97.14690877723571, 49.882921571914416], [-97.14688258297763, 49.882873082552116], [-97.14694841702239, 49.88285831744789], [-97.14697462276429, 49.88290682808559], [-97.14698442634081, 49.882925034720294], [-97.14702233308587, 49.882995347251175], [-97.14718516511654, 49.88329890708641], [-97.14738361926935, 49.88367382160868], [-97.14763948735035, 49.88413866274804], [-97.14770452155265, 49.88425932583943], [-97.14777191868394, 49.88438412052441], [-97.14795821899419, 49.884729221099015], [-97.14802981857846, 49.884861820329064], [-97.14796398142153, 49.88487657967093]]]}}, {"type": "Feature", "properties": {"id": "b5ac08d4-035f-51f3-82eb-dfef97131af7", "uid": "b5ac08d4-035f-51f3-82eb-dfef97131af7", "pf_uid": "b5ac08d4-035f-51f3-82eb-dfef97131af7", "source_file": "OSM (Legislative grounds, 2026-10-01)", "osm_id": "way/1537308271", "born_basis": "documented", "cohort": "legislative_grounds", "name": "Drive — Legislative grounds", "material": "concrete", "floors": 0.1, "type": "walkway", "born": "1920-07-15"}, "geometry": {"type": "Polygon", "coordinates": [[[-97.14730482852963, 49.885687161818474], [-97.14739391648415, 49.885666564605], [-97.1474816712936, 49.88564622903689], [-97.14759593070954, 49.88562059296308], [-97.14767202297234, 49.885603494701], [-97.14769497702765, 49.885645905299], [-97.14761886929045, 49.885663007036925], [-97.14750492870638, 49.88568857096312], [-97.14741748351584, 49.88570883539499], [-97.14732837147037, 49.88572943818152], [-97.14730482852963, 49.885687161818474]]]}}, {"type": "Feature", "properties": {"id": "f8426167-5fa3-5aa1-bfa7-7527c32977bc", "uid": "f8426167-5fa3-5aa1-bfa7-7527c32977bc", "pf_uid": "f8426167-5fa3-5aa1-bfa7-7527c32977bc", "source_file": "OSM (Legislative grounds, 2026-10-01)", "osm_id": "way/1537308272", "born_basis": "documented", "cohort": "legislative_grounds", "name": "Drive — Legislative grounds", "material": "concrete", "floors": 0.1, "type": "walkway", "born": "1920-07-15"}, "geometry": {"type": "Polygon", "coordinates": [[[-97.14767181793069, 49.88560354123738], [-97.14785651815794, 49.88556140919694], [-97.14797896652371, 49.885506934364194], [-97.1480774755052, 49.88543046810092], [-97.14814712180936, 49.885329315795786], [-97.14816231855636, 49.88523850345968], [-97.14812729358006, 49.88517918419551], [-97.14796397953066, 49.884876576168196], [-97.14802982046933, 49.8848618238318], [-97.14819290641994, 49.88516401580449], [-97.14823148144364, 49.88523289654032], [-97.14821447819065, 49.88534088420421], [-97.1481367244948, 49.88545413189908], [-97.1480260334763, 49.8855400656358], [-97.14788828184206, 49.88560139080306], [-97.14769518206931, 49.88564585876262], [-97.14767181793069, 49.88560354123738]]]}}, {"type": "Feature", "properties": {"id": "a8fc551d-90e5-5a74-9b13-29c3469ccf1c", "uid": "a8fc551d-90e5-5a74-9b13-29c3469ccf1c", "pf_uid": "a8fc551d-90e5-5a74-9b13-29c3469ccf1c", "source_file": "OSM (Legislative grounds, 2026-10-01)", "osm_id": "way/1537308273", "born_basis": "documented", "cohort": "legislative_grounds", "name": "Drive — Legislative grounds", "material": "concrete", "floors": 0.1, "type": "walkway", "born": "1920-07-15"}, "geometry": {"type": "Polygon", "coordinates": [[[-97.14638442125164, 49.885233342493336], [-97.14655618937834, 49.88554305277684], [-97.14658528901381, 49.88560264759618], [-97.14668009987525, 49.885665573674494], [-97.14679788356062, 49.8857086730549], [-97.14693391992893, 49.885739846705], [-97.14707249242645, 49.88573896715914], [-97.14730526179702, 49.88568706371779], [-97.14732793820298, 49.885729536282206], [-97.14708430757355, 49.885783232840865], [-97.14692248007108, 49.885784153295], [-97.14676891643938, 49.8857495269451], [-97.14663730012475, 49.8857010263255], [-97.14652551098618, 49.88562575240382], [-97.14649021062166, 49.88555754722316], [-97.14631877874837, 49.88524845750666], [-97.14638442125164, 49.885233342493336]]]}}, {"type": "Feature", "properties": {"id": "4a0504d7-d91e-5dd0-9b65-9d70be6469f8", "uid": "4a0504d7-d91e-5dd0-9b65-9d70be6469f8", "pf_uid": "4a0504d7-d91e-5dd0-9b65-9d70be6469f8", "source_file": "OSM (Legislative grounds, 2026-10-01)", "osm_id": "way/1537310675", "born_basis": "documented", "cohort": "legislative_grounds", "name": "Path — Legislative grounds", "material": "stone", "floors": 0.1, "type": "walkway", "born": "1920-07-15"}, "geometry": {"type": "Polygon", "coordinates": [[[-97.14731455193572, 49.88497495109146], [-97.14718615193573, 49.88490335109146], [-97.14720804806427, 49.884887048908546], [-97.14733644806427, 49.884958648908544], [-97.14731455193572, 49.88497495109146]]]}}, {"type": "Feature", "properties": {"id": "815aac1a-270e-5711-a5f7-f5ae90e6a698", "uid": "815aac1a-270e-5711-a5f7-f5ae90e6a698", "pf_uid": "815aac1a-270e-5711-a5f7-f5ae90e6a698", "source_file": "OSM (Legislative grounds, 2026-10-01)", "osm_id": "way/1537310676", "born_basis": "documented", "cohort": "legislative_grounds", "name": "Path — Legislative grounds", "material": "stone", "floors": 0.1, "type": "walkway", "born": "1920-07-15"}, "geometry": {"type": "Polygon", "coordinates": [[[-97.14694492274802, 49.885045398186264], [-97.14698012274802, 49.884936698186266], [-97.14701287725198, 49.88494110181374], [-97.14697767725198, 49.885049801813736], [-97.14694492274802, 49.885045398186264]]]}}, {"type": "Feature", "properties": {"id": "f1059618-1d64-5ee5-9c85-aea6dda50f65", "uid": "f1059618-1d64-5ee5-9c85-aea6dda50f65", "pf_uid": "f1059618-1d64-5ee5-9c85-aea6dda50f65", "source_file": "OSM (Legislative grounds, 2026-10-01)", "osm_id": "way/1537310677", "born_basis": "documented", "cohort": "legislative_grounds", "name": "Path — Legislative grounds", "material": "stone", "floors": 0.1, "type": "walkway", "born": "1920-07-15"}, "geometry": {"type": "Polygon", "coordinates": [[[-97.14720245433948, 49.88490541274528], [-97.14710735813485, 49.88492611191884], [-97.1470018619299, 49.8849491110918], [-97.1469911380701, 49.884928688908204], [-97.14709664186516, 49.88490568808117], [-97.14719174566052, 49.88488498725472], [-97.14720245433948, 49.88490541274528]]]}}, {"type": "Feature", "properties": {"id": "ca3776aa-c224-59f7-b607-b96304b2c545", "uid": "ca3776aa-c224-59f7-b607-b96304b2c545", "pf_uid": "ca3776aa-c224-59f7-b607-b96304b2c545", "source_file": "OSM (Legislative grounds, 2026-10-01)", "osm_id": "way/1537310678", "born_basis": "documented", "cohort": "legislative_grounds", "name": "Path — Legislative grounds", "material": "stone", "floors": 0.1, "type": "walkway", "born": "1920-07-15"}, "geometry": {"type": "Polygon", "coordinates": [[[-97.14711107630605, 49.88489749539849], [-97.14711363465689, 49.884907979129544], [-97.14710220882904, 49.88491506044295], [-97.14708739993144, 49.88491503035568], [-97.1470776764899, 49.88490717612097], [-97.14710852351011, 49.884898823879034], [-97.14710180006857, 49.88489556964432], [-97.14709019117095, 49.88489493955706], [-97.1470819653431, 49.88490102087045], [-97.14708112369395, 49.88490710460151], [-97.14711107630605, 49.88489749539849]]]}}, {"type": "Feature", "properties": {"id": "496a1f86-da9c-5909-915f-73207d454959", "uid": "496a1f86-da9c-5909-915f-73207d454959", "pf_uid": "496a1f86-da9c-5909-915f-73207d454959", "source_file": "OSM (Legislative grounds, 2026-10-01)", "osm_id": "way/1537313738", "born_basis": "documented", "cohort": "legislative_grounds", "name": "Path — Legislative grounds", "material": "stone", "floors": 0.1, "type": "walkway", "born": "1920-07-15"}, "geometry": {"type": "Polygon", "coordinates": [[[-97.14741107524948, 49.8849995977925], [-97.14736587101048, 49.88491468982014], [-97.14735509612233, 49.88488453124599], [-97.14739695171828, 49.88487208593698], [-97.14740764828171, 49.88489251406302], [-97.14738510387768, 49.88489406875401], [-97.14739752898952, 49.88490771017985], [-97.14744272475052, 49.884992602207504], [-97.14741107524948, 49.8849995977925]]]}}, {"type": "Feature", "properties": {"id": "d043dc0a-f687-5441-9e8d-e285e321133e", "uid": "d043dc0a-f687-5441-9e8d-e285e321133e", "pf_uid": "d043dc0a-f687-5441-9e8d-e285e321133e", "source_file": "OSM (Legislative grounds, 2026-10-01)", "osm_id": "way/1537313739", "born_basis": "documented", "cohort": "legislative_grounds", "name": "Path — Legislative grounds", "material": "stone", "floors": 0.1, "type": "walkway", "born": "1920-07-15"}, "geometry": {"type": "Polygon", "coordinates": [[[-97.14739679941707, 49.88487211957275], [-97.14761389941707, 49.88482341957275], [-97.14762490058293, 49.88484378042725], [-97.14740780058293, 49.884892480427254], [-97.14739679941707, 49.88487211957275]]]}}, {"type": "Feature", "properties": {"id": "de7800d8-862a-5a58-9c20-e64547d8eb2c", "uid": "de7800d8-862a-5a58-9c20-e64547d8eb2c", "pf_uid": "de7800d8-862a-5a58-9c20-e64547d8eb2c", "source_file": "OSM (Legislative grounds, 2026-10-01)", "osm_id": "way/1537313740", "born_basis": "documented", "cohort": "legislative_grounds", "name": "Path — Legislative grounds", "material": "stone", "floors": 0.1, "type": "walkway", "born": "1920-07-15"}, "geometry": {"type": "Polygon", "coordinates": [[[-97.14761414646193, 49.88482336554333], [-97.1476562023794, 49.88481441227288], [-97.14766967217093, 49.88481098419574], [-97.14767433594773, 49.884807795266944], [-97.14767739690079, 49.884800989423994], [-97.14767581712889, 49.8847951839075], [-97.14766987091564, 49.88478927986672], [-97.14765608544143, 49.884786076072494], [-97.14763979282822, 49.884787183850825], [-97.14759900931195, 49.88479780977225], [-97.14758659068805, 49.884777790227744], [-97.14763200717178, 49.88476621614918], [-97.14766071455857, 49.88476472392751], [-97.14769052908436, 49.88477232013328], [-97.14770678287113, 49.8847870160925], [-97.1477108030992, 49.88480221057601], [-97.14770346405228, 49.88481840473306], [-97.14768892782905, 49.88482861580427], [-97.14766799762062, 49.88483458772712], [-97.14762465353806, 49.88484383445667], [-97.14761414646193, 49.88482336554333]]]}}, {"type": "Feature", "properties": {"id": "ad215426-2bab-5cc7-8b55-2a8b84b9bda6", "uid": "ad215426-2bab-5cc7-8b55-2a8b84b9bda6", "pf_uid": "ad215426-2bab-5cc7-8b55-2a8b84b9bda6", "source_file": "OSM (Legislative grounds, 2026-10-01)", "osm_id": "way/1537313741", "born_basis": "documented", "cohort": "legislative_grounds", "name": "Path — Legislative grounds", "material": "stone", "floors": 0.1, "type": "walkway", "born": "1920-07-15"}, "geometry": {"type": "Polygon", "coordinates": [[[-97.14515876023978, 49.88387494158621], [-97.14522366023978, 49.883861441586205], [-97.14523393976022, 49.883881958413795], [-97.14516903976022, 49.8838954584138], [-97.14515876023978, 49.88387494158621]]]}}, {"type": "Feature", "properties": {"id": "e17d13ac-3c59-5806-ba1a-0189e9f92700", "uid": "e17d13ac-3c59-5806-ba1a-0189e9f92700", "pf_uid": "e17d13ac-3c59-5806-ba1a-0189e9f92700", "source_file": "OSM (Legislative grounds, 2026-10-01)", "osm_id": "way/1537313742", "born_basis": "documented", "cohort": "legislative_grounds", "name": "Path — Legislative grounds", "material": "stone", "floors": 0.1, "type": "walkway", "born": "1920-07-15"}, "geometry": {"type": "Polygon", "coordinates": [[[-97.14519072810003, 49.88379791844112], [-97.14512882810003, 49.88381131844112], [-97.14511817189997, 49.88379088155888], [-97.14518007189997, 49.88377748155888], [-97.14519072810003, 49.88379791844112]]]}}, {"type": "Feature", "properties": {"id": "cab94cd2-2fbe-568c-b75d-4de9d9459b07", "uid": "cab94cd2-2fbe-568c-b75d-4de9d9459b07", "pf_uid": "cab94cd2-2fbe-568c-b75d-4de9d9459b07", "source_file": "OSM (Legislative grounds, 2026-10-01)", "osm_id": "way/1537313982", "born_basis": "documented", "cohort": "legislative_grounds", "name": "Path — Legislative grounds", "material": "stone", "floors": 0.1, "type": "walkway", "born": "1920-07-15"}, "geometry": {"type": "Polygon", "coordinates": [[[-97.14726163231508, 49.884887220422], [-97.14720433231508, 49.884904920422], [-97.14718986768492, 49.884885479578], [-97.14724716768491, 49.884867779578], [-97.14726163231508, 49.884887220422]]]}}, {"type": "Feature", "properties": {"id": "9b227ace-127c-5803-8815-2ef08b8ec4ab", "uid": "9b227ace-127c-5803-8815-2ef08b8ec4ab", "pf_uid": "9b227ace-127c-5803-8815-2ef08b8ec4ab", "source_file": "OSM (Legislative grounds, 2026-10-01)", "osm_id": "way/1537316072", "born_basis": "documented", "cohort": "legislative_grounds", "name": "Drive — Legislative grounds", "material": "concrete", "floors": 0.1, "type": "walkway", "born": "1884-06-01"}, "geometry": {"type": "Polygon", "coordinates": [[[-97.14503407424874, 49.88373913706359], [-97.14508017463423, 49.88371611331611], [-97.14516537224961, 49.88369428365484], [-97.14526692255598, 49.88367450141235], [-97.14528707744401, 49.88371749858765], [-97.1451882277504, 49.88373671634516], [-97.14511482536578, 49.88375508668389], [-97.14507712575127, 49.88377446293641], [-97.14503407424874, 49.88373913706359]]]}}, {"type": "Feature", "properties": {"id": "df652891-23fe-57cf-b174-419f06a485fa", "uid": "df652891-23fe-57cf-b174-419f06a485fa", "pf_uid": "df652891-23fe-57cf-b174-419f06a485fa", "source_file": "OSM (Legislative grounds, 2026-10-01)", "osm_id": "way/1537316073", "born_basis": "documented", "cohort": "legislative_grounds", "name": "Drive — Legislative grounds", "material": "concrete", "floors": 0.1, "type": "walkway", "born": "1884-06-01"}, "geometry": {"type": "Polygon", "coordinates": [[[-97.1450224319436, 49.88374989966939], [-97.14505318417709, 49.8836957961029], [-97.14515324104323, 49.8836692131846], [-97.14525093737832, 49.88364856075974], [-97.14527266262168, 49.883691239240264], [-97.14517635895677, 49.8837115868154], [-97.14510361582292, 49.883726803897105], [-97.14508876805641, 49.88376370033061], [-97.1450224319436, 49.88374989966939]]]}}, {"type": "Feature", "properties": {"id": "2aeeb956-c324-5a44-86a4-dbc4797d4a2d", "uid": "2aeeb956-c324-5a44-86a4-dbc4797d4a2d", "pf_uid": "2aeeb956-c324-5a44-86a4-dbc4797d4a2d", "source_file": "OSM (Legislative grounds, 2026-10-01)", "osm_id": "way/1537316074", "born_basis": "documented", "cohort": "legislative_grounds", "name": "Drive — Legislative grounds", "material": "concrete", "floors": 0.1, "type": "walkway", "born": "1884-06-01"}, "geometry": {"type": "Polygon", "coordinates": [[[-97.14517254710843, 49.8836275835992], [-97.1451981790641, 49.88368393588688], [-97.1452100363041, 49.88370873737971], [-97.1452216615088, 49.88373188661651], [-97.14515533849121, 49.8837457133835], [-97.1451435636959, 49.88372226262029], [-97.14513142093591, 49.88369686411312], [-97.14510565289156, 49.8836402164008], [-97.14517254710843, 49.8836275835992]]]}}, {"type": "Feature", "properties": {"id": "d35ebbb8-accf-5230-835f-d9a3c7fda012", "uid": "d35ebbb8-accf-5230-835f-d9a3c7fda012", "pf_uid": "d35ebbb8-accf-5230-835f-d9a3c7fda012", "source_file": "OSM (Legislative grounds, 2026-10-01)", "osm_id": "way/1537317618", "born_basis": "documented", "cohort": "legislative_grounds", "name": "Path — Legislative grounds", "material": "stone", "floors": 0.1, "type": "walkway", "born": "1920-07-15"}, "geometry": {"type": "Polygon", "coordinates": [[[-97.14737616461709, 49.884901027406805], [-97.14767536214096, 49.884833512474145], [-97.14768410647966, 49.88482985229876], [-97.14769711475756, 49.88482244786761], [-97.14778116082006, 49.8848032208922], [-97.14779552302201, 49.884797900956336], [-97.14780679732542, 49.884789424449316], [-97.14781439237264, 49.88478096923357], [-97.1478220831216, 49.884767908533206], [-97.14782403854187, 49.88476102551843], [-97.147823978935, 49.88475544857908], [-97.14782547893499, 49.884740648579076], [-97.14782568636842, 49.884734927910955], [-97.14774337724577, 49.8845763205597], [-97.14773780331284, 49.884568380935306], [-97.14773071581246, 49.884564044041724], [-97.14771969225494, 49.88456035612541], [-97.14770551755791, 49.88455846113135], [-97.14769559865174, 49.88455904138259], [-97.14766910584869, 49.8845650792454], [-97.14765809415131, 49.8845447207546], [-97.14768860134826, 49.884537958617415], [-97.14770748244209, 49.88453693886865], [-97.14773090774507, 49.88454004387459], [-97.14775028418754, 49.88454655595828], [-97.14776499668717, 49.88455581906469], [-97.14777442275422, 49.8845682794403], [-97.14785871363158, 49.884731472089044], [-97.14785892106501, 49.88474135142092], [-97.14785742106501, 49.88475615142092], [-97.14785736145814, 49.884762974481575], [-97.1478543168784, 49.88477369146679], [-97.14784460762736, 49.884790230766434], [-97.14783400267459, 49.88480197555068], [-97.147816876978, 49.884814499043664], [-97.14779523917993, 49.8848227791078], [-97.14771428524244, 49.884840952132386], [-97.14770449352034, 49.88484694770124], [-97.14769003785905, 49.88485288752585], [-97.14738723538291, 49.88492137259319], [-97.14737616461709, 49.884901027406805]]]}}, {"type": "Feature", "properties": {"id": "b7f732e7-04f2-5f67-ba75-5fadb498a36b", "uid": "b7f732e7-04f2-5f67-ba75-5fadb498a36b", "pf_uid": "b7f732e7-04f2-5f67-ba75-5fadb498a36b", "source_file": "OSM (Legislative grounds, 2026-10-01)", "osm_id": "way/1537317619", "born_basis": "documented", "cohort": "legislative_grounds", "name": "Path — Legislative grounds", "material": "stone", "floors": 0.1, "type": "walkway", "born": "1920-07-15"}, "geometry": {"type": "Polygon", "coordinates": [[[-97.14770863883346, 49.88454922345075], [-97.14770977085314, 49.884541806110576], [-97.14770854397418, 49.88453466637262], [-97.14770816138568, 49.884523555570844], [-97.14767401145902, 49.88453467798482], [-97.14728945498317, 49.88461771649418], [-97.1472061258181, 49.88447519137287], [-97.14723767418191, 49.884468008627124], [-97.14730394501683, 49.88459828350582], [-97.14766298854097, 49.88451432201518], [-97.14772303861432, 49.88450424442916], [-97.14774125602582, 49.88453013362737], [-97.14774322914687, 49.88454159388942], [-97.14774196116655, 49.88455117654925], [-97.14770863883346, 49.88454922345075]]]}}, {"type": "Feature", "properties": {"id": "8ffede5a-dbb5-56e0-9def-8c64d50f55d5", "uid": "8ffede5a-dbb5-56e0-9def-8c64d50f55d5", "pf_uid": "8ffede5a-dbb5-56e0-9def-8c64d50f55d5", "source_file": "OSM (Legislative grounds, 2026-10-01)", "osm_id": "way/1537319189", "born_basis": "documented", "cohort": "legislative_grounds", "name": "Path — Legislative grounds", "material": "stone", "floors": 0.1, "type": "walkway", "born": "1920-07-15"}, "geometry": {"type": "Polygon", "coordinates": [[[-97.14765262190294, 49.88452789593883], [-97.14764959133038, 49.884511188201735], [-97.14759672111585, 49.88452536540588], [-97.14758473770253, 49.88451491908], [-97.14758141101368, 49.88451195567992], [-97.14757421490326, 49.88450912454561], [-97.14756570642737, 49.884507352265295], [-97.14755616966032, 49.884508484495974], [-97.14753923580437, 49.88451111246131], [-97.14751438129761, 49.88451296797272], [-97.14749141063751, 49.88451264767253], [-97.14747026702334, 49.88451080795981], [-97.14744834851643, 49.884506198875656], [-97.1474281304268, 49.88450073969981], [-97.14740674409865, 49.88449341737076], [-97.14738711312322, 49.88448665104921], [-97.14737172950659, 49.88447899408088], [-97.14735711575257, 49.88447015170412], [-97.14734442407894, 49.884461592724904], [-97.1473310207302, 49.884452280118104], [-97.14731822169006, 49.88444098844861], [-97.14731114910299, 49.88443010873049], [-97.14727368823864, 49.88436012209583], [-97.14723600314679, 49.88429005931081], [-97.1472308488766, 49.88427931101577], [-97.14722667811866, 49.88426742331377], [-97.14722657033487, 49.884254936280556], [-97.14722677669444, 49.88424379604877], [-97.14722771859442, 49.88423027934027], [-97.14723006755405, 49.8842165761046], [-97.14723838792474, 49.884197197321605], [-97.14724794789883, 49.88418372995889], [-97.14725652225317, 49.88417214658547], [-97.14726719891118, 49.88416053402413], [-97.1472831539634, 49.88414901945651], [-97.14729880651754, 49.88413927432737], [-97.14731913691375, 49.88412903905296], [-97.14733726230556, 49.884122910846926], [-97.14735297064122, 49.88411727367471], [-97.14737068955341, 49.8841121038736], [-97.14738884110406, 49.8841060267943], [-97.14740751041201, 49.88410106642747], [-97.14742433145119, 49.884095200083095], [-97.14743690575602, 49.88408938498413], [-97.14744603084716, 49.88408066704283], [-97.1474556113112, 49.884070470882904], [-97.14745930524403, 49.884061698792145], [-97.1474601028988, 49.884054475259994], [-97.14745815607694, 49.88404832813563], [-97.147348186973, 49.883847485220386], [-97.14734167375862, 49.88383998352767], [-97.14732963921423, 49.883832870670304], [-97.14732039451691, 49.88382578378389], [-97.14730522853316, 49.883820113317995], [-97.14729065590456, 49.88381752090489], [-97.14727070942054, 49.88381536444993], [-97.14725152690531, 49.88381610032727], [-97.14722674101537, 49.88381911052465], [-97.1467841033351, 49.88391930461319], [-97.1467590429113, 49.883919726725175], [-97.1467411738939, 49.88391712866911], [-97.146721693083, 49.88391072957012], [-97.14670357109686, 49.8839032866996], [-97.14669612165423, 49.883894370221], [-97.14672627834577, 49.883885029778995], [-97.14672822890314, 49.8838887133004], [-97.14673790691701, 49.88389187042988], [-97.14675262610609, 49.88389687133089], [-97.1467623570887, 49.88389827327483], [-97.1467780966649, 49.88389809538681], [-97.14721805898463, 49.88379828947536], [-97.1472474730947, 49.88379469967273], [-97.14727249057945, 49.883793835550065], [-97.14729794409544, 49.8837964790951], [-97.14731837146684, 49.883800286682], [-97.1473418054831, 49.88380921621611], [-97.14735376078576, 49.883817929329695], [-97.14736792624139, 49.88382661647233], [-97.147378613027, 49.88383851477961], [-97.14749044392306, 49.88404267186437], [-97.14749349710121, 49.88405312474], [-97.14749229475596, 49.88406530120786], [-97.14748638868879, 49.884078929117095], [-97.14747416915284, 49.884092332957174], [-97.14746089424398, 49.88410441501588], [-97.14744226854882, 49.8841133999169], [-97.14742188958799, 49.884120533572535], [-97.14740295889595, 49.884125573205694], [-97.1473853104466, 49.88413149612641], [-97.14736802935879, 49.884136526325285], [-97.14735313769445, 49.88414188915307], [-97.14733726308626, 49.884147160947045], [-97.14732079348246, 49.88415552567264], [-97.1473072460366, 49.8841639805435], [-97.14729420108881, 49.88417326597586], [-97.14728607774683, 49.88418225341454], [-97.14727825210117, 49.884192870041105], [-97.14726981207525, 49.8842046026784], [-97.14726293244594, 49.884220623895395], [-97.14726108140559, 49.88423192065973], [-97.14726022330557, 49.88424440395122], [-97.14726002966513, 49.88425506371945], [-97.14725992188134, 49.884264976686225], [-97.14726315112338, 49.88427368898423], [-97.14726779685321, 49.88428334068919], [-97.14730531176136, 49.884353077904166], [-97.14734245089701, 49.88442249126951], [-97.14734737830995, 49.884430411551385], [-97.14735677926978, 49.88443851988189], [-97.14736877592105, 49.8844468072751], [-97.14738068424744, 49.884454848295874], [-97.14739347049341, 49.884462605919126], [-97.14740528687679, 49.884468548950785], [-97.14742245590136, 49.884474382629236], [-97.14744246957319, 49.884481260300184], [-97.14746005148356, 49.884486001124344], [-97.14747773297667, 49.884489792040185], [-97.14749398936249, 49.88449115232746], [-97.14751281870238, 49.88449143202728], [-97.14753336419562, 49.88448988753869], [-97.14754983033968, 49.884487315504025], [-97.14756809357263, 49.8844858477347], [-97.14758798509673, 49.884489475454394], [-97.14760398898633, 49.88449604432008], [-97.14761366229747, 49.88450408092], [-97.14760947888415, 49.88450543459412], [-97.14766360866963, 49.88449161179826], [-97.14768437809705, 49.884521104061164], [-97.14765262190294, 49.88452789593883]]]}}, {"type": "Feature", "properties": {"id": "edc64e56-67cb-5d8b-98c4-4dfbc96d7e74", "uid": "edc64e56-67cb-5d8b-98c4-4dfbc96d7e74", "pf_uid": "edc64e56-67cb-5d8b-98c4-4dfbc96d7e74", "source_file": "OSM (Legislative grounds, 2026-10-01)", "osm_id": "way/1537319190", "born_basis": "documented", "cohort": "legislative_grounds", "name": "Path — Legislative grounds", "material": "stone", "floors": 0.1, "type": "walkway", "born": "1920-07-15"}, "geometry": {"type": "Polygon", "coordinates": [[[-97.14642310545865, 49.883950162086485], [-97.14642701845933, 49.883962208645286], [-97.14641749996794, 49.88397250356451], [-97.14641308200017, 49.883984124259406], [-97.14639950215948, 49.883999642839804], [-97.146368345665, 49.884012146991594], [-97.14635135868272, 49.884016067317006], [-97.14592918763329, 49.884111765688225], [-97.1459121131534, 49.88411620235431], [-97.14590103659992, 49.88412240136983], [-97.14588736128373, 49.88413029407261], [-97.14587559885248, 49.88414266486911], [-97.14586857133901, 49.88415140927834], [-97.1458657126516, 49.8841654743032], [-97.14586341827737, 49.88418050273761], [-97.14586350945628, 49.884189600091325], [-97.14586960492429, 49.884199284747595], [-97.14597126565776, 49.88438861278699], [-97.14598361114824, 49.88439840418402], [-97.14595738885177, 49.884411795815986], [-97.14594193434225, 49.884398987213004], [-97.14583819507573, 49.884206715252404], [-97.14583069054372, 49.88419379990868], [-97.14582998172264, 49.8841796972624], [-97.14583248734841, 49.8841629256968], [-97.14583662866099, 49.88414499072166], [-97.14584640114751, 49.88413213513089], [-97.14586163871628, 49.88411650592739], [-97.14587896340007, 49.88410619863017], [-97.14589468684659, 49.88409779764569], [-97.14591721236671, 49.88409163431178], [-97.14634024131729, 49.88399573268299], [-97.146354054335, 49.883992653008406], [-97.1463752978405, 49.8839847571602], [-97.14638191799985, 49.8839762757406], [-97.14638710003207, 49.8839634964355], [-97.14639398154067, 49.883958791354715], [-97.14639109454136, 49.88395643791352], [-97.14642310545865, 49.883950162086485]]]}}]}