{"type": "FeatureCollection", "attribution": "Bridge history: City of Winnipeg chronology; Manitoba Historical Society Historic Sites", "features": [{"type": "Feature", "properties": {"id": "45cca9e1-7cef-551d-8967-dc3c4f0262e4", "uid": "45cca9e1-7cef-551d-8967-dc3c4f0262e4", "pf_uid": "45cca9e1-7cef-551d-8967-dc3c4f0262e4", "name": "Louise Bridge (1st)", "type": "bridge", "material": "iron", "bridge_style": "truss", "floors": 1, "born": "1881-06-01", "born_basis": "documented", "source_file": "generated: City of Winnipeg bridge chronology + MHS Historic Sites (2026-10-01)", "notes": "Combination CPR / City bridge (Jarvis), 1881; CPR use to 1904.", "cohort": "bridges", "died": "1911-06-01", "bridge_fit": true}, "geometry": {"type": "Polygon", "coordinates": [[[-97.11446473252757, 49.9045799777241], [-97.11314834789992, 49.90614239389811], [-97.11324639681285, 49.906176674639056], [-97.1145627814405, 49.904614258465045], [-97.11446473252757, 49.9045799777241]]]}}, {"type": "Feature", "properties": {"id": "982027e5-8cbe-550f-bc2e-094de208cdb5", "uid": "982027e5-8cbe-550f-bc2e-094de208cdb5", "pf_uid": "982027e5-8cbe-550f-bc2e-094de208cdb5", "name": "Louise Bridge (2nd)", "type": "bridge", "material": "iron", "bridge_style": "truss", "floors": 1, "born": "1911-06-01", "born_basis": "documented", "source_file": "generated: City of Winnipeg bridge chronology + MHS Historic Sites (2026-10-01)", "notes": "Steel through truss: two 203 ft spans + 277 ft swing span, 26 ft wide; streetcar tracks to 1955 (MHS).", "cohort": "bridges", "bridge_fit": true}, "geometry": {"type": "Polygon", "coordinates": [[[-97.11445247641345, 49.90457569263148], [-97.1131360917858, 49.90613810880549], [-97.11325865292697, 49.90618095973167], [-97.11457503755462, 49.90461854355766], [-97.11445247641345, 49.90457569263148]]]}}, {"type": "Feature", "properties": {"id": "32a301b4-a0b0-5cbb-a43e-42da60636427", "uid": "32a301b4-a0b0-5cbb-a43e-42da60636427", "pf_uid": "32a301b4-a0b0-5cbb-a43e-42da60636427", "name": "Main Street Bridge (1st)", "type": "bridge", "material": "iron", "bridge_style": "truss", "floors": 1, "born": "1881-06-01", "born_basis": "documented", "source_file": "generated: City of Winnipeg bridge chronology + MHS Historic Sites (2026-10-01)", "notes": "Private toll bridge (HBC company), city-owned from 1882.", "cohort": "bridges", "died": "1897-06-01", "bridge_fit": true}, "geometry": {"type": "Polygon", "coordinates": [[[-97.13356292958295, 49.88648271570409], [-97.13273576082791, 49.885094164919366], [-97.13263160702961, 49.88511991204823], [-97.13345877578465, 49.88650846283296], [-97.13356292958295, 49.88648271570409]]]}}, {"type": "Feature", "properties": {"id": "8cd9d220-65ca-54b2-b2d1-fd0894672ae3", "uid": "8cd9d220-65ca-54b2-b2d1-fd0894672ae3", "pf_uid": "8cd9d220-65ca-54b2-b2d1-fd0894672ae3", "name": "Main Street Bridge (2nd)", "type": "bridge", "material": "iron", "bridge_style": "truss", "floors": 1, "born": "1897-06-01", "born_basis": "documented", "source_file": "generated: City of Winnipeg bridge chronology + MHS Historic Sites (2026-10-01)", "notes": "Second bridge 1897 (its superstructure later reused).", "cohort": "bridges", "died": "1931-06-01", "bridge_fit": true}, "geometry": {"type": "Polygon", "coordinates": [[[-97.13358896803253, 49.886476278921876], [-97.13276179927749, 49.885087728137144], [-97.13260556858003, 49.88512634883045], [-97.13343273733507, 49.88651489961518], [-97.13358896803253, 49.886476278921876]]]}}, {"type": "Feature", "properties": {"id": "1e27e9d3-5e10-54da-bc23-fd349ccbc92b", "uid": "1e27e9d3-5e10-54da-bc23-fd349ccbc92b", "pf_uid": "1e27e9d3-5e10-54da-bc23-fd349ccbc92b", "name": "Main Street Bridge (3rd)", "type": "bridge", "material": "concrete", "bridge_style": "girder", "floors": 1, "born": "1931-06-01", "born_basis": "documented", "source_file": "generated: City of Winnipeg bridge chronology + MHS Historic Sites (2026-10-01)", "notes": "Third bridge 1931 (type assumed).", "cohort": "bridges", "bridge_fit": true}, "geometry": {"type": "Polygon", "coordinates": [[[-97.13364104493166, 49.88646340535744], [-97.13281387617664, 49.885074854572714], [-97.1325534916809, 49.88513922239488], [-97.13338066043592, 49.88652777317961], [-97.13364104493166, 49.88646340535744]]]}}, {"type": "Feature", "properties": {"id": "76f5a0c3-5b51-5711-b60f-04baf7e2cbeb", "uid": "76f5a0c3-5b51-5711-b60f-04baf7e2cbeb", "pf_uid": "76f5a0c3-5b51-5711-b60f-04baf7e2cbeb", "name": "Osborne Street Bridge (1st)", "type": "bridge", "material": "iron", "bridge_style": "truss", "floors": 1, "born": "1882-06-01", "born_basis": "documented", "source_file": "generated: City of Winnipeg bridge chronology + MHS Historic Sites (2026-10-01)", "notes": "First bridge 1882 (Ruttan; Dean & Westbrook).", "cohort": "bridges", "died": "1912-06-01", "bridge_fit": true}, "geometry": {"type": "Polygon", "coordinates": [[[-97.14843444592603, 49.88277650340885], [-97.14820191635503, 49.88169209848702], [-97.14809140629214, 49.881701932026765], [-97.14832393586313, 49.88278633694859], [-97.14843444592603, 49.88277650340885]]]}}, {"type": "Feature", "properties": {"id": "69f1f829-032b-5320-ba20-acb2d80cf48b", "uid": "69f1f829-032b-5320-ba20-acb2d80cf48b", "pf_uid": "69f1f829-032b-5320-ba20-acb2d80cf48b", "name": "Osborne Street Bridge (2nd)", "type": "bridge", "material": "concrete", "bridge_style": "girder", "floors": 1, "born": "1912-06-01", "born_basis": "documented", "source_file": "generated: City of Winnipeg bridge chronology + MHS Historic Sites (2026-10-01)", "notes": "Second bridge 1912 (type assumed).", "cohort": "bridges", "bridge_fit": true}, "geometry": {"type": "Polygon", "coordinates": [[[-97.14848970095748, 49.882771586638974], [-97.14825717138648, 49.88168718171715], [-97.14803615126068, 49.88170684879664], [-97.14826868083169, 49.882791253718466], [-97.14848970095748, 49.882771586638974]]]}}, {"type": "Feature", "properties": {"id": "a3acc5fe-e630-5269-8c7e-e1359db2cce6", "uid": "a3acc5fe-e630-5269-8c7e-e1359db2cce6", "pf_uid": "a3acc5fe-e630-5269-8c7e-e1359db2cce6", "name": "Broadway Bridge (1st)", "type": "bridge", "material": "iron", "bridge_style": "truss", "floors": 1, "born": "1882-04-16", "born_basis": "documented", "source_file": "generated: City of Winnipeg bridge chronology + MHS Historic Sites (2026-10-01)", "notes": "Opened 16 Apr 1882; two spans carried away by ice three days later.", "cohort": "bridges", "died": "1882-04-19", "bridge_fit": true}, "geometry": {"type": "Polygon", "coordinates": [[[-97.12939438889762, 49.891072328065874], [-97.1257816934651, 49.891148543535564], [-97.12578534499163, 49.89122036992254], [-97.12939804042415, 49.89114415445285], [-97.12939438889762, 49.891072328065874]]]}}, {"type": "Feature", "properties": {"id": "0416b0ae-a666-5ca1-80fc-c00e88b66a2f", "uid": "0416b0ae-a666-5ca1-80fc-c00e88b66a2f", "pf_uid": "0416b0ae-a666-5ca1-80fc-c00e88b66a2f", "name": "Broadway Bridge (2nd)", "type": "bridge", "material": "iron", "bridge_style": "truss", "floors": 1, "born": "1883-06-01", "born_basis": "documented", "source_file": "generated: City of Winnipeg bridge chronology + MHS Historic Sites (2026-10-01)", "notes": "Five fixed spans + one swing span, ~900 ft (Pratt/Murphy-Whipple); replaced by Provencher Bridge. (Shown on the modern alignment.)", "cohort": "bridges", "died": "1918-07-01", "bridge_fit": true}, "geometry": {"type": "Polygon", "coordinates": [[[-97.12939438889762, 49.891072328065874], [-97.1257816934651, 49.891148543535564], [-97.12578534499163, 49.89122036992254], [-97.12939804042415, 49.89114415445285], [-97.12939438889762, 49.891072328065874]]]}}, {"type": "Feature", "properties": {"id": "7f32e20e-a0bd-5441-9180-8e963d143b15", "uid": "7f32e20e-a0bd-5441-9180-8e963d143b15", "pf_uid": "7f32e20e-a0bd-5441-9180-8e963d143b15", "name": "Provencher Bridge", "type": "bridge", "material": "concrete", "bridge_style": "girder", "floors": 1, "born": "1918-07-01", "born_basis": "documented", "source_file": "generated: City of Winnipeg bridge chronology + MHS Historic Sites (2026-10-01)", "notes": "Strauss double-leaf bascule, begun 1914, opened summer 1918 (MHS).", "cohort": "bridges", "bridge_fit": true}, "geometry": {"type": "Polygon", "coordinates": [[[-97.12939210669354, 49.89102743657401], [-97.12577941126102, 49.8911036520437], [-97.1257876271957, 49.89126526141441], [-97.12940032262823, 49.89118904594472], [-97.12939210669354, 49.89102743657401]]]}}, {"type": "Feature", "properties": {"id": "48239a33-2202-5635-b2bd-c6ea890b45a9", "uid": "48239a33-2202-5635-b2bd-c6ea890b45a9", "pf_uid": "48239a33-2202-5635-b2bd-c6ea890b45a9", "name": "Norwood Bridge (1st)", "type": "bridge", "material": "iron", "bridge_style": "truss", "floors": 1, "born": "1890-06-01", "born_basis": "documented", "source_file": "generated: City of Winnipeg bridge chronology + MHS Historic Sites (2026-10-01)", "notes": "Private toll bridge (Norwood Improvement Co.), bought by St. Boniface 1904.", "cohort": "bridges", "died": "1931-06-01", "bridge_fit": true}, "geometry": {"type": "Polygon", "coordinates": [[[-97.13128638991381, 49.88322980236532], [-97.1295491997772, 49.88208359287191], [-97.12947935405147, 49.88212752118531], [-97.13121654418808, 49.883273730678724], [-97.13128638991381, 49.88322980236532]]]}}, {"type": "Feature", "properties": {"id": "fa1f15d2-9c73-5c98-bd5d-7475e65601cd", "uid": "fa1f15d2-9c73-5c98-bd5d-7475e65601cd", "pf_uid": "fa1f15d2-9c73-5c98-bd5d-7475e65601cd", "name": "Norwood Bridge (2nd)", "type": "bridge", "material": "concrete", "bridge_style": "girder", "floors": 1, "born": "1931-06-01", "born_basis": "documented", "source_file": "generated: City of Winnipeg bridge chronology + MHS Historic Sites (2026-10-01)", "notes": "Second bridge 1931 (type assumed).", "cohort": "bridges", "bridge_fit": true}, "geometry": {"type": "Polygon", "coordinates": [[[-97.1313312907375, 49.88320156273527], [-97.12959410060088, 49.88205535324186], [-97.12943445322777, 49.88215576081536], [-97.1311716433644, 49.88330197030877], [-97.1313312907375, 49.88320156273527]]]}}, {"type": "Feature", "properties": {"id": "af988140-1587-5e0c-b91a-767e38b7888b", "uid": "af988140-1587-5e0c-b91a-767e38b7888b", "pf_uid": "af988140-1587-5e0c-b91a-767e38b7888b", "name": "Redwood Bridge", "type": "bridge", "material": "iron", "bridge_style": "truss", "floors": 1, "born": "1909-01-12", "born_basis": "documented", "source_file": "generated: City of Winnipeg bridge chronology + MHS Historic Sites (2026-10-01)", "notes": "Steel through truss with swing span (two 150 ft, one 98 ft, 250 ft swing); 25 ft roadway + 6 ft sidewalks; opened 12 Jan 1909 (MHS).", "cohort": "bridges", "bridge_fit": true}, "geometry": {"type": "Polygon", "coordinates": [[[-97.12874055532043, 49.916569350476266], [-97.12514823202721, 49.91565671230069], [-97.12509042032272, 49.91575114315055], [-97.12868274361594, 49.91666378132613], [-97.12874055532043, 49.916569350476266]]]}}, {"type": "Feature", "properties": {"id": "9b1ce4dc-7137-5bab-9bc1-7aaa5c7c2b35", "uid": "9b1ce4dc-7137-5bab-9bc1-7aaa5c7c2b35", "pf_uid": "9b1ce4dc-7137-5bab-9bc1-7aaa5c7c2b35", "name": "Maryland Bridge (1st)", "type": "bridge", "material": "iron", "bridge_style": "truss", "floors": 1, "born": "1894-06-01", "born_basis": "documented", "source_file": "generated: City of Winnipeg bridge chronology + MHS Historic Sites (2026-10-01)", "notes": "Steel truss 1894 (\"Boundary Bridge\"); streetcars suspended June 1920.", "cohort": "bridges", "died": "1921-06-01", "bridge_fit": true}, "geometry": {"type": "Polygon", "coordinates": [[[-97.16293870230243, 49.87741013428461], [-97.1598669195839, 49.87875532576395], [-97.15992963810315, 49.87881475819873], [-97.16300142082167, 49.87746956671939], [-97.16293870230243, 49.87741013428461]]]}}, {"type": "Feature", "properties": {"id": "37590cad-934f-50e8-b15c-4a78d2f59614", "uid": "37590cad-934f-50e8-b15c-4a78d2f59614", "pf_uid": "37590cad-934f-50e8-b15c-4a78d2f59614", "name": "Maryland Bridge (2nd)", "type": "bridge", "material": "concrete", "bridge_style": "arch", "floors": 1, "born": "1921-06-01", "born_basis": "documented", "source_file": "generated: City of Winnipeg bridge chronology + MHS Historic Sites (2026-10-01)", "notes": "Concrete arch 1921.", "cohort": "bridges", "bridge_fit": true}, "geometry": {"type": "Polygon", "coordinates": [[[-97.16291126295026, 49.87738413259439], [-97.15983948023174, 49.87872932407373], [-97.15995707745532, 49.878840759888945], [-97.16302886017384, 49.87749556840961], [-97.16291126295026, 49.87738413259439]]]}}, {"type": "Feature", "properties": {"id": "927e9b7f-27dc-57b0-8279-fa9b37392412", "uid": "927e9b7f-27dc-57b0-8279-fa9b37392412", "pf_uid": "927e9b7f-27dc-57b0-8279-fa9b37392412", "name": "Midtown Bridge", "type": "bridge", "material": "concrete", "bridge_style": "girder", "floors": 1, "born": "1954-06-01", "born_basis": "documented", "source_file": "generated: City of Winnipeg bridge chronology + MHS Historic Sites (2026-10-01)", "notes": "First bridge 1954.", "cohort": "bridges", "bridge_fit": true}, "geometry": {"type": "Polygon", "coordinates": [[[-97.13896913759463, 49.885123356671386], [-97.1374430560933, 49.8835949448313], [-97.13720848960635, 49.88369213551549], [-97.13873457110768, 49.88522054735557], [-97.13896913759463, 49.885123356671386]]]}}, {"type": "Feature", "properties": {"id": "993a44f9-affd-5556-9897-c1056bbeec02", "uid": "993a44f9-affd-5556-9897-c1056bbeec02", "pf_uid": "993a44f9-affd-5556-9897-c1056bbeec02", "name": "Salter Street Overpass (1st)", "type": "bridge", "material": "iron", "bridge_style": "truss", "floors": 1, "born": "1898-06-01", "born_basis": "documented", "source_file": "generated: City of Winnipeg bridge chronology + MHS Historic Sites (2026-10-01)", "notes": "Superstructure salvaged from the original Main Street Bridge.", "cohort": "bridges", "died": "1932-06-01"}, "geometry": {"type": "Polygon", "coordinates": [[[-97.14665619472393, 49.90602462174166], [-97.14313923380914, 49.91186042148655], [-97.1432562308311, 49.911889680744636], [-97.1467731917459, 49.90605388099974], [-97.14665619472393, 49.90602462174166]]]}}, {"type": "Feature", "properties": {"id": "f6379b31-64ae-5aad-91ba-2096d4223312", "uid": "f6379b31-64ae-5aad-91ba-2096d4223312", "pf_uid": "f6379b31-64ae-5aad-91ba-2096d4223312", "name": "Salter Street Overpass (2nd)", "type": "bridge", "material": "concrete", "bridge_style": "girder", "floors": 1, "born": "1932-06-01", "born_basis": "documented", "source_file": "generated: City of Winnipeg bridge chronology + MHS Historic Sites (2026-10-01)", "notes": "Second bridge 1932.", "cohort": "bridges"}, "geometry": {"type": "Polygon", "coordinates": [[[-97.14661069588206, 49.90601324314129], [-97.14309373496727, 49.91184904288618], [-97.14330172967297, 49.911901059345006], [-97.14681869058776, 49.90606525960011], [-97.14661069588206, 49.90601324314129]]]}}, {"type": "Feature", "properties": {"id": "9d9e8004-ca19-5693-bb53-4b56defdeab7", "uid": "9d9e8004-ca19-5693-bb53-4b56defdeab7", "pf_uid": "9d9e8004-ca19-5693-bb53-4b56defdeab7", "name": "Arlington Street Overpass", "type": "bridge", "material": "iron", "bridge_style": "truss", "floors": 1, "born": "1912-06-01", "born_basis": "documented", "source_file": "generated: City of Winnipeg bridge chronology + MHS Historic Sites (2026-10-01)", "notes": "Steel overpass over the CPR yards, 1912.", "cohort": "bridges"}, "geometry": {"type": "Polygon", "coordinates": [[[-97.1626152331731, 49.91108120099439], [-97.15845069573344, 49.91674139694204], [-97.15856410641885, 49.916776023603504], [-97.16272864385851, 49.911115827655856], [-97.1626152331731, 49.91108120099439]]]}}, {"type": "Feature", "properties": {"id": "676deb6d-cdcd-50f3-9021-28329e488531", "uid": "676deb6d-cdcd-50f3-9021-28329e488531", "pf_uid": "676deb6d-cdcd-50f3-9021-28329e488531", "name": "Point Douglas rail bridge (CPR Red River bridge)", "type": "bridge", "material": "iron", "bridge_style": "truss", "bridge_fit": true, "floors": 1, "born": "1902-07-01", "born_basis": "MHS: first train early July 1902", "source_file": "generated (replaces the Goad/Planimetro bridge footprint, which was 43.5 m wide)", "cohort": "bridges", "notes": "CPR Red River bridge at Point Douglas: built 1901–02 by Kelly Brothers ($250,000), 780 ft, five spans with a 258 ft centre swing span (fixed c.1969), dual track; first train early July 1902 (MHS). Drawn 9 m wide on the Goad axis; the swing span is not modelled."}, "geometry": {"type": "Polygon", "coordinates": [[[-97.1102291102707, 49.90275619187985], [-97.10556638256816, 49.90247419544956], [-97.10555465127409, 49.90255468948598], [-97.11021737897661, 49.90283668591628], [-97.1102291102707, 49.90275619187985]]]}}]}